{"type" : "FeatureCollection", "features" : [{"type" : "Feature", "properties" : {"name" : "군산", "address" : "전라북도 군산시 옥서면 산동길 2"}, "geometry" : {"type":"Point","coordinates":[126.615906,35.903756]}}, {"type" : "Feature", "properties" : {"name" : "원주", "address" : "강원도 횡성군 횡성읍 횡성로 38 "}, "geometry" : {"type":"Point","coordinates":[127.960278,37.438056]}}, {"type" : "Feature", "properties" : {"name" : "인천", "address" : "인천광역시 중구 공항로 424번길 47"}, "geometry" : {"type":"Point","coordinates":[126.440002,37.463333]}}, {"type" : "Feature", "properties" : {"name" : "김포", "address" : "서울특별시 강서구 하늘길 76"}, "geometry" : {"type":"Point","coordinates":[126.790556,37.558056]}}, {"type" : "Feature", "properties" : {"name" : "김해", "address" : "부산광역시 강서구 공항진입로 108번지"}, "geometry" : {"type":"Point","coordinates":[128.938056,35.179444]}}, {"type" : "Feature", "properties" : {"name" : "제주", "address" : "제주 제주시 공항로 2"}, "geometry" : {"type":"Point","coordinates":[126.492778,33.511111]}}, {"type" : "Feature", "properties" : {"name" : "대구", "address" : "대구광역시 동구 공항로 221"}, "geometry" : {"type":"Point","coordinates":[128.658889,35.893889]}}, {"type" : "Feature", "properties" : {"name" : "울산", "address" : "울산광역시 북구 산업로 1103"}, "geometry" : {"type":"Point","coordinates":[129.351667,35.593333]}}, {"type" : "Feature", "properties" : {"name" : "청주", "address" : "충청북도 청주시 내수읍 오창대로 980"}, "geometry" : {"type":"Point","coordinates":[127.498889,36.716389]}}, {"type" : "Feature", "properties" : {"name" : "양양", "address" : "강원도 양양군 손양면 공항로 201"}, "geometry" : {"type":"Point","coordinates":[128.668889,38.061111]}}, {"type" : "Feature", "properties" : {"name" : "무안", "address" : "전라남도 무안군 망운면 공항로 970-260"}, "geometry" : {"type":"Point","coordinates":[126.382814,34.991406]}}, {"type" : "Feature", "properties" : {"name" : "광주", "address" : "광주광역시 광산구 상무대로 420-25"}, "geometry" : {"type":"Point","coordinates":[126.808889,35.126389]}}, {"type" : "Feature", "properties" : {"name" : "여수", "address" : "전라남도 여수시 율촌면 여순로 386"}, "geometry" : {"type":"Point","coordinates":[127.616667,34.842222]}}, {"type" : "Feature", "properties" : {"name" : "사천", "address" : "경상남도 사천시 사천읍 사천대로 1971"}, "geometry" : {"type":"Point","coordinates":[128.070278,35.088611]}}, {"type" : "Feature", "properties" : {"name" : "포항", "address" : "경상북도 포항시 남구 동해면 일월로 18"}, "geometry" : {"type":"Point","coordinates":[129.420486,35.987858]}}]}
