{"type" : "FeatureCollection", "features" : [{"type" : "Feature", "properties" : {"adm_cd" : "11", "name" : "서울특별시"}, "geometry" : {"type":"Polygon","coordinates":[[[127.015415,37.701455],[127.051804,37.687067],[127.062368,37.693024],[127.081105,37.696137],[127.095789,37.684623],[127.111424,37.642087],[127.118095,37.605472],[127.101144,37.576071],[127.101122,37.561051],[127.104929,37.556422],[127.174343,37.580029],[127.181995,37.560992],[127.182796,37.54639],[127.163163,37.544991],[127.141175,37.515102],[127.14001,37.508763],[127.145535,37.50335],[127.157729,37.503179],[127.161219,37.500395],[127.157619,37.489202],[127.147344,37.479732],[127.065698,37.429158],[127.047369,37.430702],[127.036654,37.44208],[127.03466,37.463977],[127.029583,37.464288],[126.997371,37.463687],[126.97458,37.454413],[126.96429,37.446267],[126.963803,37.440787],[126.958999,37.439127],[126.903472,37.434163],[126.871797,37.484997],[126.84396,37.474483],[126.818633,37.474081],[126.81964,37.49921],[126.825654,37.52103],[126.799274,37.540632],[126.771552,37.548318],[126.766204,37.554242],[126.793695,37.581594],[126.797923,37.600013],[126.802581,37.605033],[126.853632,37.571791],[126.899644,37.589817],[126.913721,37.644756],[126.947511,37.659185],[126.957108,37.652837],[126.963329,37.633245],[126.984713,37.647252],[127.010622,37.696963],[127.015415,37.701455]]]}}, {"type" : "Feature", "properties" : {"adm_cd" : "23", "name" : "인천광역시"}, "geometry" : {"type":"MultiPolygon","coordinates":[[[[126.11873,37.247243],[126.127991,37.251994],[126.165746,37.230663],[126.144225,37.215137],[126.117346,37.209183],[126.089077,37.226697],[126.101615,37.269811],[126.107985,37.27231],[126.11873,37.247243]]],[[[126.494759,37.277701],[126.495857,37.255867],[126.486119,37.259449],[126.476563,37.251578],[126.482075,37.244188],[126.458989,37.224125],[126.431687,37.234036],[126.428569,37.261978],[126.437528,37.272847],[126.458238,37.282967],[126.487796,37.283195],[126.494759,37.277701]]],[[[126.564864,37.514371],[126.577009,37.503612],[126.581327,37.489623],[126.564489,37.479356],[126.529196,37.473534],[126.506314,37.465708],[126.482627,37.443545],[126.442852,37.421],[126.418859,37.421924],[126.413304,37.435215],[126.39514,37.446061],[126.380336,37.43959],[126.363961,37.44217],[126.355277,37.467356],[126.359472,37.473432],[126.414086,37.494793],[126.467816,37.498826],[126.496132,37.513286],[126.499216,37.530884],[126.515795,37.534065],[126.564864,37.514371]]],[[[126.778056,37.457],[126.77088,37.430868],[126.754362,37.41751],[126.739163,37.397123],[126.675238,37.35212],[126.64053,37.342033],[126.594967,37.34332],[126.582952,37.347196],[126.582909,37.35484],[126.648914,37.355026],[126.618895,37.377782],[126.595706,37.41646],[126.631292,37.426921],[126.63121,37.429933],[126.610915,37.454298],[126.601051,37.438342],[126.594267,37.438314],[126.595004,37.470746],[126.606334,37.486296],[126.598187,37.5504],[126.574842,37.58835],[126.616488,37.603718],[126.654009,37.638214],[126.672422,37.633842],[126.714067,37.603854],[126.739013,37.593703],[126.793695,37.581594],[126.766204,37.554242],[126.760714,37.537914],[126.741626,37.508825],[126.742411,37.486914],[126.767606,37.472818],[126.778197,37.471795],[126.778056,37.457]]],[[[125.706747,37.68091],[125.714655,37.679085],[125.716078,37.67346],[125.692806,37.652005],[125.684244,37.652825],[125.68321,37.67904],[125.706747,37.68091]]],[[[126.371013,37.663911],[126.344414,37.645168],[126.327404,37.654162],[126.324632,37.659512],[126.328719,37.670165],[126.318845,37.681947],[126.288778,37.695307],[126.276982,37.710124],[126.289087,37.742634],[126.317973,37.752424],[126.329565,37.74804],[126.318474,37.729998],[126.318184,37.714389],[126.339199,37.698908],[126.367114,37.693515],[126.375905,37.68676],[126.378929,37.681194],[126.371013,37.663911]]],[[[124.769431,37.77966],[124.772061,37.77738],[124.766787,37.766034],[124.752735,37.769759],[124.740689,37.765732],[124.737683,37.761274],[124.727712,37.759907],[124.734306,37.77089],[124.741663,37.773052],[124.740607,37.778633],[124.746573,37.775705],[124.769431,37.77966]]],[[[126.26638,37.815284],[126.288384,37.805838],[126.32429,37.808196],[126.333368,37.796924],[126.314956,37.77369],[126.292341,37.764676],[126.23168,37.751342],[126.207561,37.768336],[126.22322,37.805037],[126.240519,37.8173],[126.26638,37.815284]]],[[[126.513137,37.714043],[126.521399,37.697817],[126.518353,37.68131],[126.5223,37.653333],[126.538076,37.625001],[126.531998,37.613595],[126.514945,37.600308],[126.459346,37.59217],[126.404993,37.593934],[126.374431,37.612147],[126.375452,37.63635],[126.397719,37.640066],[126.407275,37.647469],[126.410132,37.654274],[126.405029,37.672919],[126.391336,37.69564],[126.385512,37.69998],[126.359802,37.70359],[126.351353,37.715468],[126.352522,37.785326],[126.405037,37.822098],[126.426714,37.831556],[126.435858,37.829574],[126.455635,37.808493],[126.487711,37.789775],[126.506897,37.782348],[126.523054,37.749344],[126.513956,37.725826],[126.513137,37.714043]]],[[[124.719112,37.816003],[124.702755,37.804736],[124.684303,37.806539],[124.667824,37.818542],[124.668043,37.82196],[124.703386,37.849687],[124.719477,37.836994],[124.719112,37.816003]]],[[[124.729772,37.978141],[124.733035,37.962287],[124.697881,37.923777],[124.681424,37.922774],[124.639427,37.923889],[124.609718,37.969955],[124.61682,37.979534],[124.640575,37.968699],[124.704781,37.983691],[124.718358,37.982718],[124.729772,37.978141]]]]}}, {"type" : "Feature", "properties" : {"adm_cd" : "29", "name" : "세종특별자치시"}, "geometry" : {"type":"Polygon","coordinates":[[[127.164643,36.733808],[127.203122,36.726149],[127.237021,36.705303],[127.248025,36.695068],[127.28529,36.690671],[127.304362,36.68481],[127.307625,36.682022],[127.30509,36.66757],[127.295927,36.65957],[127.288688,36.658898],[127.278585,36.641344],[127.279969,36.633972],[127.300062,36.617194],[127.306534,36.601384],[127.304361,36.590655],[127.33655,36.569986],[127.401515,36.541493],[127.405013,36.537311],[127.410562,36.496278],[127.396121,36.491721],[127.383855,36.500231],[127.36346,36.489614],[127.355799,36.450273],[127.340472,36.43051],[127.326298,36.422095],[127.282124,36.414612],[127.265493,36.417175],[127.259577,36.415338],[127.259082,36.411787],[127.235626,36.418808],[127.201049,36.441176],[127.197908,36.465967],[127.16999,36.509038],[127.174241,36.54219],[127.197487,36.564547],[127.199307,36.58254],[127.157997,36.606204],[127.150053,36.619008],[127.157052,36.627233],[127.15794,36.635192],[127.156223,36.690764],[127.141749,36.689984],[127.133599,36.706692],[127.152012,36.728443],[127.164643,36.733808]]]}}, {"type" : "Feature", "properties" : {"adm_cd" : "34", "name" : "충청남도"}, "geometry" : {"type":"Polygon","coordinates":[[[126.483478,36.515273],[126.487734,36.527347],[126.4642,36.583316],[126.455277,36.595387],[126.414216,36.614969],[126.365729,36.626853],[126.333897,36.610689],[126.320071,36.594951],[126.338685,36.607764],[126.359175,36.612451],[126.365864,36.609725],[126.374842,36.596559],[126.378964,36.549122],[126.409706,36.492907],[126.414763,36.451244],[126.430033,36.437754],[126.430474,36.417944],[126.425845,36.402138],[126.370021,36.411967],[126.332973,36.446692],[126.328774,36.474648],[126.338734,36.505112],[126.325153,36.557385],[126.314231,36.571067],[126.311622,36.585424],[126.315036,36.58929],[126.291377,36.58651],[126.283149,36.593841],[126.289729,36.615371],[126.297839,36.620359],[126.301349,36.631644],[126.294479,36.657822],[126.28428,36.671711],[126.27821,36.67363],[126.265155,36.69941],[126.27942,36.729895],[126.271769,36.730907],[126.247082,36.718452],[126.229153,36.695895],[126.198117,36.679431],[126.155578,36.677786],[126.152247,36.679715],[126.149216,36.701715],[126.16562,36.715879],[126.18295,36.714016],[126.194549,36.706422],[126.207255,36.705194],[126.217713,36.710812],[126.223377,36.718857],[126.184967,36.753265],[126.166358,36.75853],[126.140819,36.754041],[126.149923,36.747998],[126.150488,36.730521],[126.123641,36.707612],[126.119612,36.708506],[126.121714,36.725785],[126.160637,36.826094],[126.159523,36.829828],[126.14583,36.838554],[126.159735,36.845178],[126.163968,36.840413],[126.171881,36.811782],[126.176942,36.810225],[126.18397,36.812914],[126.198522,36.855479],[126.187109,36.870057],[126.186352,36.882472],[126.211387,36.899358],[126.248601,36.911341],[126.248287,36.909291],[126.276521,36.897799],[126.292483,36.901089],[126.294178,36.929276],[126.290105,36.952753],[126.284695,36.963264],[126.285955,36.969533],[126.304736,36.978462],[126.310228,36.956153],[126.301714,36.944061],[126.300284,36.919474],[126.313199,36.883513],[126.281386,36.820704],[126.287576,36.799119],[126.293164,36.798211],[126.337413,36.816232],[126.326581,36.827303],[126.319057,36.843574],[126.328479,36.861287],[126.332763,36.863462],[126.347712,36.860839],[126.343207,36.846272],[126.354342,36.832921],[126.365106,36.829548],[126.371888,36.86777],[126.369654,36.871958],[126.383148,36.881981],[126.431086,36.898693],[126.418896,36.937405],[126.396027,36.935464],[126.382213,36.939186],[126.337202,36.96051],[126.337359,36.968349],[126.386519,36.967449],[126.386468,36.973641],[126.374626,36.982593],[126.365179,36.979003],[126.330814,36.985297],[126.327611,36.999637],[126.405579,37.018286],[126.425839,37.015205],[126.452104,37.006822],[126.4635,37.01779],[126.489059,37.059525],[126.49836,37.06494],[126.519148,37.059435],[126.526755,37.051907],[126.528231,37.045851],[126.541947,37.035055],[126.633101,37.001655],[126.704669,36.99937],[126.718084,36.99311],[126.75,36.9871],[126.780776,36.976201],[126.783842,36.973647],[126.781411,36.969017],[126.791633,36.937],[126.817284,36.896475],[126.8268,36.888521],[126.862516,36.880015],[126.905889,36.888689],[126.911262,36.892875],[126.909658,36.901596],[126.916743,36.906209],[126.939626,36.917331],[126.995182,36.935359],[127.015568,36.935391],[127.025797,36.928747],[127.03178,36.928322],[127.091915,36.943448],[127.098436,36.954463],[127.096506,36.95934],[127.113098,36.973074],[127.155675,36.966869],[127.190751,36.952486],[127.217698,36.929409],[127.244049,36.917599],[127.270293,36.913271],[127.287829,36.893779],[127.307884,36.885387],[127.310799,36.871081],[127.334099,36.83236],[127.382157,36.813753],[127.400787,36.799092],[127.420417,36.760838],[127.404439,36.746017],[127.396021,36.747933],[127.385017,36.759643],[127.358819,36.760575],[127.34392,36.753706],[127.334604,36.746346],[127.343166,36.735695],[127.339203,36.729725],[127.310482,36.724287],[127.285263,36.690606],[127.245711,36.695892],[127.237021,36.705303],[127.203122,36.726149],[127.164643,36.733808],[127.152012,36.728443],[127.133599,36.706692],[127.141749,36.689984],[127.156223,36.690764],[127.15794,36.635192],[127.157052,36.627233],[127.150053,36.619008],[127.157997,36.606204],[127.199307,36.58254],[127.197487,36.564547],[127.174241,36.54219],[127.16999,36.509038],[127.197908,36.465967],[127.201049,36.441176],[127.235626,36.418808],[127.259082,36.411787],[127.259577,36.415338],[127.265493,36.417175],[127.282124,36.414612],[127.279032,36.379543],[127.246653,36.29096],[127.257866,36.276678],[127.279645,36.265891],[127.28309,36.237025],[127.297323,36.221525],[127.303244,36.222635],[127.303567,36.229735],[127.315261,36.221288],[127.331599,36.195998],[127.334032,36.1831],[127.36299,36.223632],[127.365137,36.243634],[127.3602,36.262213],[127.363227,36.268655],[127.37246,36.272179],[127.390258,36.262271],[127.388643,36.254981],[127.396618,36.232123],[127.407999,36.212893],[127.441102,36.194787],[127.455592,36.200801],[127.492577,36.237954],[127.519219,36.241822],[127.549049,36.239728],[127.583582,36.231296],[127.597779,36.2175],[127.599658,36.205091],[127.595908,36.15349],[127.589481,36.134297],[127.605529,36.118203],[127.610078,36.118572],[127.632927,36.081368],[127.638203,36.068229],[127.623924,36.067272],[127.620551,36.064205],[127.618491,36.041936],[127.630535,36.042152],[127.639748,36.032252],[127.605587,36.012134],[127.58977,36.026046],[127.531421,36.040843],[127.53769,36.026736],[127.53364,35.992007],[127.508889,35.979781],[127.456746,35.983276],[127.448606,35.993151],[127.434557,36.029495],[127.41959,36.022704],[127.413406,36.015156],[127.401223,36.008736],[127.376831,36.028844],[127.361839,36.063766],[127.359943,36.08832],[127.353055,36.11361],[127.335859,36.129793],[127.32686,36.130841],[127.301691,36.125204],[127.297068,36.122731],[127.293935,36.113072],[127.274522,36.107425],[127.225919,36.099142],[127.205913,36.10059],[127.122694,36.063582],[127.091536,36.07305],[127.060931,36.093797],[127.056966,36.115087],[127.06106,36.117191],[127.063009,36.125223],[127.039687,36.138272],[126.967463,36.153637],[126.895248,36.142449],[126.887754,36.137951],[126.874869,36.11253],[126.870818,36.067404],[126.86553,36.060925],[126.807892,36.035507],[126.748047,36.025751],[126.736483,36.000432],[126.723135,36.000211],[126.683876,36.00864],[126.6328,36.081678],[126.645775,36.088948],[126.591233,36.128609],[126.574093,36.139051],[126.52027,36.152297],[126.507032,36.150334],[126.501162,36.141359],[126.504032,36.129303],[126.508832,36.129374],[126.502873,36.128611],[126.494166,36.133428],[126.492836,36.15866],[126.517,36.158962],[126.526181,36.169414],[126.536451,36.201735],[126.530289,36.237484],[126.540022,36.260749],[126.546281,36.260915],[126.548132,36.265107],[126.528181,36.297133],[126.522303,36.300299],[126.506556,36.320431],[126.505837,36.328352],[126.5153,36.327618],[126.540806,36.338878],[126.555639,36.349213],[126.504683,36.383641],[126.488556,36.383334],[126.496685,36.433782],[126.48104,36.477731],[126.483478,36.515273]],[[126.615216,36.488279],[126.599416,36.476707],[126.589358,36.47524],[126.575144,36.48198],[126.560774,36.48275],[126.526967,36.456352],[126.526159,36.447323],[126.533154,36.440368],[126.565541,36.452075],[126.611171,36.479503],[126.618648,36.495033],[126.615216,36.488279]]]}}, {"type" : "Feature", "properties" : {"adm_cd" : "37", "name" : "경상북도"}, "geometry" : {"type":"MultiPolygon","coordinates":[[[[129.413295,37.04808],[129.409443,37.026936],[129.414945,36.965022],[129.421024,36.9408],[129.419147,36.892542],[129.415332,36.889546],[129.427723,36.850859],[129.457053,36.814294],[129.478037,36.768268],[129.468043,36.757365],[129.475832,36.700104],[129.464802,36.685757],[129.437783,36.67047],[129.417637,36.639354],[129.412105,36.62236],[129.412164,36.586047],[129.42168,36.570684],[129.440314,36.552274],[129.453298,36.508186],[129.437522,36.465621],[129.436156,36.426254],[129.429483,36.409141],[129.407328,36.388493],[129.379336,36.333065],[129.378352,36.290316],[129.372933,36.254926],[129.374062,36.208085],[129.397768,36.161127],[129.395215,36.14042],[129.40027,36.132375],[129.423623,36.115035],[129.432234,36.110671],[129.439728,36.110649],[129.439579,36.097273],[129.410275,36.073049],[129.400013,36.066901],[129.383007,36.06292],[129.372594,36.049867],[129.397145,36.01416],[129.42918,35.997098],[129.450052,35.991468],[129.503234,36.025687],[129.504139,36.033313],[129.54718,36.084893],[129.555606,36.086083],[129.566153,36.079061],[129.580987,36.043489],[129.577177,36.011209],[129.552359,35.972214],[129.546289,35.95366],[129.523938,35.933553],[129.528239,35.864417],[129.491606,35.787811],[129.494175,35.769945],[129.475782,35.689848],[129.471583,35.680265],[129.453956,35.66463],[129.449787,35.651069],[129.355991,35.679395],[129.348751,35.677178],[129.327821,35.658836],[129.296257,35.644741],[129.260445,35.654638],[129.255504,35.660456],[129.262593,35.691127],[129.25685,35.700703],[129.218007,35.713172],[129.156935,35.719218],[129.101759,35.706067],[129.083068,35.697644],[129.069877,35.682372],[129.067273,35.661992],[128.98675,35.60912],[128.961414,35.617354],[128.951198,35.630154],[128.941145,35.635073],[128.915054,35.640619],[128.887245,35.629108],[128.871966,35.618251],[128.845696,35.589619],[128.842639,35.588994],[128.833648,35.597354],[128.823763,35.596118],[128.808886,35.588923],[128.792346,35.570466],[128.785529,35.566888],[128.757179,35.567706],[128.694003,35.588348],[128.687604,35.595025],[128.655289,35.597888],[128.636532,35.584698],[128.605796,35.580244],[128.584753,35.586465],[128.572957,35.593216],[128.536626,35.624261],[128.526808,35.673504],[128.535197,35.694014],[128.527905,35.712741],[128.563015,35.733855],[128.580516,35.738667],[128.612435,35.738519],[128.613843,35.710157],[128.619777,35.70285],[128.68324,35.721454],[128.692,35.733263],[128.695486,35.755742],[128.681824,35.783149],[128.682502,35.790131],[128.713885,35.817508],[128.737802,35.851203],[128.750752,35.857509],[128.759386,35.871234],[128.761332,35.887521],[128.744087,35.943958],[128.733986,35.995068],[128.722659,36.006131],[128.694273,36.015851],[128.624456,36.007657],[128.581243,35.978045],[128.557066,35.97223],[128.543486,35.974775],[128.534078,35.955638],[128.535118,35.938486],[128.528645,35.92367],[128.496357,35.889228],[128.47527,35.894458],[128.467755,35.900218],[128.476419,35.934439],[128.454155,35.943149],[128.424901,35.928041],[128.398977,35.899927],[128.384209,35.865656],[128.38351,35.852835],[128.415982,35.851757],[128.450002,35.846657],[128.481083,35.830133],[128.483059,35.820505],[128.482718,35.815537],[128.470433,35.805922],[128.441029,35.806017],[128.440945,35.809294],[128.42083,35.809355],[128.408119,35.799208],[128.383469,35.760087],[128.391247,35.748353],[128.431816,35.725598],[128.434889,35.714758],[128.432147,35.704895],[128.422223,35.697269],[128.412202,35.695842],[128.358878,35.708701],[128.351797,35.704016],[128.353298,35.690922],[128.362319,35.675574],[128.400037,35.645555],[128.401251,35.632729],[128.388376,35.617928],[128.371748,35.610881],[128.352138,35.644583],[128.30599,35.655476],[128.298065,35.656227],[128.229732,35.639459],[128.213864,35.640777],[128.161498,35.653787],[128.159867,35.666152],[128.163676,35.672975],[128.177747,35.673364],[128.203831,35.685926],[128.201968,35.719174],[128.189279,35.75176],[128.14896,35.784154],[128.137526,35.78426],[128.130524,35.789004],[128.121903,35.803494],[128.123056,35.822433],[128.069786,35.841202],[128.011216,35.829079],[127.996994,35.837052],[127.986499,35.851987],[127.933221,35.864398],[127.93022,35.878629],[127.918508,35.89046],[127.893521,35.886799],[127.885794,35.892999],[127.882192,35.903186],[127.885059,35.909606],[127.882237,35.928884],[127.909856,35.951407],[127.893218,35.986784],[127.875597,35.996913],[127.876774,36.022512],[127.884837,36.035889],[127.916782,36.054238],[127.928103,36.050802],[127.961835,36.077171],[127.976423,36.122733],[127.986862,36.128049],[127.988853,36.132656],[127.990771,36.151424],[127.975332,36.187711],[127.978016,36.198111],[127.998775,36.207466],[128.009748,36.209362],[128.024048,36.206649],[128.038999,36.222182],[128.039628,36.259218],[128.010317,36.272152],[127.983935,36.262843],[127.977947,36.257333],[127.942803,36.26673],[127.905571,36.291222],[127.889452,36.288513],[127.877897,36.275381],[127.860862,36.27706],[127.849586,36.281308],[127.841534,36.308312],[127.845772,36.318118],[127.852564,36.329632],[127.881431,36.345136],[127.890836,36.356571],[127.884167,36.380013],[127.875722,36.390593],[127.87599,36.44897],[127.886196,36.493003],[127.897607,36.49848],[127.906336,36.506944],[127.902463,36.52807],[127.860423,36.567951],[127.852363,36.571153],[127.824471,36.570907],[127.804897,36.581387],[127.798476,36.586442],[127.796152,36.595265],[127.798467,36.602077],[127.854071,36.618123],[127.860626,36.635365],[127.873936,36.655046],[127.879658,36.656767],[127.884926,36.642785],[127.897275,36.626737],[127.919962,36.601118],[127.925242,36.602814],[127.932377,36.618743],[127.937644,36.645449],[127.929572,36.668765],[127.908568,36.679483],[127.89167,36.68244],[127.88001,36.678709],[127.874293,36.681961],[127.89389,36.694382],[127.928919,36.690839],[127.95145,36.720615],[127.972669,36.72689],[127.986848,36.717549],[128.070384,36.707705],[128.072724,36.711886],[128.067988,36.722234],[128.032325,36.747576],[128.032367,36.75517],[128.053243,36.791684],[128.059637,36.816773],[128.06736,36.816767],[128.085373,36.804204],[128.133976,36.828441],[128.21537,36.812002],[128.217316,36.819374],[128.213008,36.839134],[128.241826,36.872326],[128.282476,36.855963],[128.295624,36.835341],[128.316096,36.820807],[128.357139,36.808186],[128.421143,36.811807],[128.449031,36.847842],[128.447998,36.864388],[128.436929,36.873561],[128.424339,36.878109],[128.450436,36.930789],[128.462782,36.947384],[128.554731,36.998286],[128.570344,37.013995],[128.572906,37.0208],[128.565645,37.03153],[128.583526,37.043734],[128.607096,37.049748],[128.637856,37.051554],[128.652096,37.06544],[128.675651,37.058848],[128.753765,37.027832],[128.762176,37.036155],[128.773591,37.087508],[128.780282,37.092343],[128.829384,37.078459],[128.846875,37.051607],[128.868421,37.046052],[128.889266,37.049391],[128.897114,37.054298],[128.910417,37.066135],[128.917222,37.0801],[128.953426,37.084922],[128.99069,37.082941],[129.036668,37.076171],[129.06581,37.07817],[129.074153,37.091022],[129.096251,37.100415],[129.165805,37.067341],[129.184948,37.044703],[129.232667,37.044219],[129.227636,37.072095],[129.271238,37.116381],[129.347836,37.146448],[129.363397,37.146001],[129.370274,37.136925],[129.374428,37.110617],[129.379603,37.099065],[129.418528,37.056845],[129.413295,37.04808]]],[[[131.868103,37.239426],[131.871294,37.240115],[131.869629,37.238294],[131.868103,37.239426]]],[[[131.866865,37.241795],[131.863197,37.240798],[131.865285,37.244315],[131.866865,37.241795]]],[[[130.907059,37.476904],[130.867723,37.459146],[130.812175,37.473708],[130.802089,37.484021],[130.797007,37.513013],[130.802468,37.518998],[130.844937,37.535365],[130.907328,37.548648],[130.911437,37.541324],[130.907872,37.527194],[130.913544,37.518326],[130.920869,37.48661],[130.907059,37.476904]]]]}}, {"type" : "Feature", "properties" : {"adm_cd" : "32", "name" : "강원도"}, "geometry" : {"type":"Polygon","coordinates":[[[128.72544,38.023782],[128.730602,38.007097],[128.769246,37.958022],[128.879123,37.82951],[128.959846,37.760543],[129.036151,37.689318],[129.045941,37.635385],[129.054188,37.621366],[129.1063,37.584155],[129.116722,37.551804],[129.112211,37.549391],[129.11245,37.544423],[129.133673,37.498824],[129.14801,37.490923],[129.187515,37.455914],[129.194389,37.436542],[129.189439,37.437143],[129.19756,37.415921],[129.219754,37.397745],[129.250859,37.362935],[129.270406,37.321508],[129.301018,37.292398],[129.326401,37.279866],[129.354582,37.236778],[129.343536,37.219702],[129.345342,37.194312],[129.352102,37.165128],[129.363397,37.146001],[129.344336,37.145953],[129.272019,37.117008],[129.227636,37.072095],[129.232667,37.044219],[129.184948,37.044703],[129.165805,37.067341],[129.096251,37.100415],[129.074153,37.091022],[129.06581,37.07817],[129.036668,37.076171],[128.99069,37.082941],[128.953426,37.084922],[128.917222,37.0801],[128.910417,37.066135],[128.897114,37.054298],[128.889266,37.049391],[128.868421,37.046052],[128.846875,37.051607],[128.829384,37.078459],[128.780282,37.092343],[128.773591,37.087508],[128.762176,37.036155],[128.750976,37.028102],[128.675651,37.058848],[128.652096,37.06544],[128.627627,37.079301],[128.615032,37.081881],[128.606643,37.076698],[128.591847,37.078155],[128.538131,37.089627],[128.534136,37.098112],[128.496554,37.125791],[128.481681,37.113737],[128.435236,37.11127],[128.419742,37.117217],[128.405752,37.126988],[128.401364,37.144627],[128.384352,37.158122],[128.334907,37.155124],[128.295708,37.136027],[128.279964,37.142473],[128.264442,37.160415],[128.295624,37.183288],[128.326387,37.197291],[128.331112,37.212702],[128.316396,37.222421],[128.309617,37.218302],[128.268394,37.207923],[128.258836,37.218231],[128.207799,37.248823],[128.201175,37.24897],[128.14204,37.228598],[128.115211,37.21664],[128.111589,37.207743],[128.100001,37.201695],[128.074311,37.193085],[128.041074,37.188991],[128.033907,37.191409],[128.028298,37.202323],[128.033082,37.210808],[128.018257,37.245714],[128.007965,37.252122],[127.986942,37.257841],[127.971915,37.256378],[127.938881,37.240743],[127.921724,37.225382],[127.932,37.205585],[127.934489,37.190378],[127.933626,37.175803],[127.926327,37.165527],[127.861377,37.158607],[127.84688,37.152807],[127.787828,37.144236],[127.765489,37.159141],[127.757074,37.169202],[127.744101,37.209547],[127.758184,37.277279],[127.762096,37.321139],[127.757884,37.346408],[127.759599,37.36706],[127.775792,37.378956],[127.799909,37.427271],[127.795151,37.472583],[127.774689,37.491746],[127.77179,37.505185],[127.809581,37.537862],[127.842023,37.538901],[127.848004,37.552447],[127.839511,37.559217],[127.759903,37.587009],[127.700836,37.596117],[127.659156,37.62327],[127.606216,37.650794],[127.602194,37.651537],[127.588296,37.642977],[127.580655,37.633398],[127.559402,37.628497],[127.537937,37.641478],[127.535655,37.650695],[127.559715,37.716564],[127.5118,37.715715],[127.507067,37.720594],[127.507112,37.731359],[127.511215,37.736435],[127.534076,37.748602],[127.54488,37.760075],[127.540924,37.770875],[127.530862,37.781431],[127.524803,37.829672],[127.529443,37.839723],[127.577887,37.874014],[127.597649,37.875371],[127.60747,37.887147],[127.616909,37.909798],[127.616584,37.928266],[127.602445,37.954999],[127.572123,37.963923],[127.547166,37.978281],[127.539877,38.000568],[127.531095,38.002388],[127.503923,37.997953],[127.471556,38.006453],[127.461543,38.012854],[127.456857,38.018456],[127.444584,38.057261],[127.445167,38.09747],[127.440453,38.108832],[127.43093,38.115362],[127.378614,38.118429],[127.339765,38.101295],[127.336958,38.089769],[127.32067,38.094684],[127.283482,38.116336],[127.274617,38.135829],[127.288706,38.165974],[127.265615,38.176942],[127.26448,38.171744],[127.256189,38.164332],[127.222042,38.137432],[127.219193,38.139065],[127.189241,38.161321],[127.161918,38.230078],[127.147656,38.2412],[127.111566,38.247388],[127.110729,38.270975],[127.103641,38.280589],[127.095127,38.281384],[127.132154,38.313638],[127.14001,38.315674],[127.155472,38.304026],[127.209798,38.3195],[127.228533,38.330265],[127.242364,38.333135],[127.306385,38.317364],[127.363833,38.326128],[127.381352,38.337147],[127.462034,38.32178],[127.476171,38.315792],[127.481623,38.306797],[127.496954,38.299807],[127.514583,38.303874],[127.545838,38.323177],[127.577919,38.336384],[127.609045,38.336746],[127.615071,38.333882],[127.615947,38.32657],[127.619395,38.324905],[127.670635,38.32338],[127.690983,38.325317],[127.714007,38.33431],[127.775506,38.34164],[127.821739,38.303788],[127.839467,38.307698],[127.851192,38.314625],[127.926792,38.309381],[127.958224,38.30022],[127.98066,38.281758],[127.98893,38.277316],[128.002564,38.275511],[128.032031,38.310902],[128.049153,38.307042],[128.068763,38.309963],[128.139168,38.3344],[128.191385,38.369168],[128.283553,38.437241],[128.301888,38.47586],[128.313199,38.512363],[128.309504,38.593558],[128.344729,38.611266],[128.356777,38.613709],[128.393952,38.568767],[128.418397,38.51244],[128.455042,38.445205],[128.456911,38.43118],[128.507458,38.360869],[128.527843,38.323778],[128.548383,38.302648],[128.550574,38.284443],[128.560359,38.257676],[128.59902,38.214823],[128.609389,38.18346],[128.610958,38.146106],[128.635269,38.116711],[128.671519,38.083314],[128.677367,38.074276],[128.676097,38.067003],[128.684043,38.057989],[128.72544,38.023782]]]}}, {"type" : "Feature", "properties" : {"adm_cd" : "21", "name" : "부산광역시"}, "geometry" : {"type":"Polygon","coordinates":[[[128.959294,35.050139],[128.950624,35.080046],[128.912289,35.08171],[128.884006,35.079303],[128.835206,35.08545],[128.84992,35.052168],[128.851199,35.042052],[128.837461,34.997102],[128.829611,34.989746],[128.821858,34.994562],[128.819442,35.004127],[128.823462,35.004984],[128.827305,35.013447],[128.801306,35.047633],[128.814485,35.068338],[128.83239,35.071316],[128.83238,35.077614],[128.811515,35.077585],[128.828699,35.08997],[128.83141,35.088652],[128.820527,35.096635],[128.841609,35.105922],[128.842962,35.113158],[128.834614,35.127495],[128.815357,35.132635],[128.80765,35.139095],[128.79452,35.158538],[128.849162,35.165484],[128.865607,35.159431],[128.871663,35.150465],[128.875677,35.150731],[128.879972,35.161858],[128.880675,35.180907],[128.870355,35.201559],[128.88461,35.213639],[128.920128,35.216423],[128.984158,35.229756],[128.994292,35.234041],[129.011623,35.263319],[129.070169,35.294342],[129.105552,35.30653],[129.125635,35.331866],[129.134587,35.351451],[129.17614,35.351398],[129.19369,35.36198],[129.198762,35.366496],[129.20117,35.387782],[129.218536,35.378955],[129.236431,35.382986],[129.266107,35.38416],[129.304829,35.329886],[129.305749,35.324624],[129.299197,35.31836],[129.286525,35.32027],[129.257876,35.305262],[129.253429,35.24645],[129.224274,35.186463],[129.194383,35.160202],[129.181724,35.154834],[129.164965,35.159028],[129.118119,35.152318],[129.112863,35.135082],[129.128979,35.118174],[129.124034,35.099248],[129.099633,35.091183],[129.048244,35.115645],[129.019831,35.071201],[129.022326,35.061881],[129.016137,35.054437],[129.011646,35.052456],[129.004043,35.081343],[128.967166,35.036194],[128.959294,35.050139]]]}}, {"type" : "Feature", "properties" : {"adm_cd" : "24", "name" : "광주광역시"}, "geometry" : {"type":"Polygon","coordinates":[[[126.763384,35.256519],[126.758999,35.245371],[126.76031,35.233973],[126.805319,35.21835],[126.815659,35.224702],[126.904801,35.258087],[126.914608,35.25821],[126.929372,35.252415],[126.951841,35.224591],[126.971851,35.180529],[126.999969,35.188816],[127.022275,35.17136],[127.007869,35.123987],[126.978916,35.091774],[126.951882,35.073157],[126.937181,35.074247],[126.926093,35.082392],[126.862366,35.076752],[126.809487,35.052288],[126.735287,35.1093],[126.708623,35.109533],[126.667472,35.105125],[126.651659,35.120412],[126.650552,35.147958],[126.65667,35.193777],[126.71988,35.226766],[126.737096,35.251874],[126.757904,35.258367],[126.763384,35.256519]]]}}, {"type" : "Feature", "properties" : {"adm_cd" : "22", "name" : "대구광역시"}, "geometry" : {"type":"Polygon","coordinates":[[[128.696041,36.015573],[128.722659,36.006131],[128.733814,35.995426],[128.744087,35.943958],[128.761332,35.887521],[128.757555,35.864953],[128.750752,35.857509],[128.737802,35.851203],[128.713885,35.817508],[128.682502,35.790131],[128.681824,35.783149],[128.695486,35.755742],[128.690964,35.730889],[128.68324,35.721454],[128.623997,35.702297],[128.619777,35.70285],[128.613916,35.709841],[128.612435,35.738519],[128.580516,35.738667],[128.563015,35.733855],[128.527905,35.712741],[128.535197,35.694014],[128.529851,35.683015],[128.507551,35.672858],[128.508277,35.649255],[128.480692,35.63714],[128.445766,35.636701],[128.415755,35.619986],[128.382399,35.60654],[128.372739,35.608449],[128.371748,35.610881],[128.388376,35.617928],[128.401251,35.632729],[128.400037,35.645555],[128.362319,35.675574],[128.353298,35.690922],[128.351797,35.704016],[128.358878,35.708701],[128.412202,35.695842],[128.422223,35.697269],[128.432147,35.704895],[128.434889,35.714758],[128.431816,35.725598],[128.391247,35.748353],[128.383469,35.760087],[128.408119,35.799208],[128.42083,35.809355],[128.440945,35.809294],[128.441029,35.806017],[128.470433,35.805922],[128.482952,35.818006],[128.481083,35.830133],[128.450002,35.846657],[128.415982,35.851757],[128.38351,35.852835],[128.384209,35.865656],[128.398977,35.899927],[128.424901,35.928041],[128.454155,35.943149],[128.476419,35.934439],[128.467755,35.900218],[128.47527,35.894458],[128.496357,35.889228],[128.528645,35.92367],[128.535118,35.938486],[128.534078,35.955638],[128.543486,35.974775],[128.557066,35.97223],[128.581243,35.978045],[128.624456,36.007657],[128.696041,36.015573]]]}}, {"type" : "Feature", "properties" : {"adm_cd" : "25", "name" : "대전광역시"}, "geometry" : {"type":"Polygon","coordinates":[[[127.398922,36.489105],[127.402085,36.45604],[127.447162,36.449195],[127.458405,36.452299],[127.463513,36.460298],[127.479182,36.456296],[127.501555,36.408654],[127.510466,36.409639],[127.514513,36.422474],[127.524319,36.423432],[127.54186,36.415858],[127.552614,36.402839],[127.550213,36.396612],[127.539159,36.397192],[127.525669,36.387322],[127.522396,36.354325],[127.500559,36.339294],[127.486048,36.261248],[127.492577,36.237954],[127.455592,36.200801],[127.441102,36.194787],[127.407999,36.212893],[127.396618,36.232123],[127.388643,36.254981],[127.390258,36.262271],[127.37246,36.272179],[127.363227,36.268655],[127.3602,36.262213],[127.365137,36.243634],[127.36299,36.223632],[127.334032,36.1831],[127.331599,36.195998],[127.315261,36.221288],[127.303567,36.229735],[127.303244,36.222635],[127.297323,36.221525],[127.28309,36.237025],[127.279645,36.265891],[127.257866,36.276678],[127.246653,36.29096],[127.279032,36.379543],[127.282124,36.414612],[127.326298,36.422095],[127.340472,36.43051],[127.358621,36.455896],[127.36346,36.489614],[127.383855,36.500231],[127.398922,36.489105]]]}}, {"type" : "Feature", "properties" : {"adm_cd" : "31", "name" : "경기도"}, "geometry" : {"type":"Polygon","coordinates":[[[126.742684,37.038001],[126.756681,37.055456],[126.682594,37.112863],[126.662062,37.155984],[126.660015,37.176419],[126.66467,37.191643],[126.660732,37.223389],[126.64813,37.243002],[126.646382,37.258132],[126.661145,37.28737],[126.695004,37.279264],[126.782532,37.29171],[126.76764,37.292531],[126.732674,37.300757],[126.671243,37.329038],[126.614558,37.313153],[126.578048,37.292819],[126.583858,37.284559],[126.637354,37.257495],[126.654673,37.224597],[126.652934,37.20031],[126.645459,37.189562],[126.64273,37.189639],[126.626368,37.219139],[126.623319,37.233959],[126.595966,37.231096],[126.57645,37.22032],[126.557109,37.21788],[126.567313,37.237009],[126.556412,37.276646],[126.576156,37.293447],[126.605584,37.310167],[126.620499,37.315707],[126.691308,37.335779],[126.693685,37.348378],[126.753324,37.408307],[126.754362,37.41751],[126.77088,37.430868],[126.77982,37.465831],[126.778197,37.471795],[126.767606,37.472818],[126.743049,37.486515],[126.741802,37.494482],[126.741626,37.508825],[126.760714,37.537914],[126.766204,37.554242],[126.771552,37.548318],[126.799274,37.540632],[126.825654,37.52103],[126.81964,37.49921],[126.818633,37.474081],[126.84396,37.474483],[126.871797,37.484997],[126.903472,37.434163],[126.958999,37.439127],[126.963803,37.440787],[126.96429,37.446267],[126.97458,37.454413],[126.997371,37.463687],[127.029583,37.464288],[127.03466,37.463977],[127.036654,37.44208],[127.047369,37.430702],[127.053458,37.428809],[127.069615,37.430612],[127.147344,37.479732],[127.157619,37.489202],[127.16139,37.500201],[127.157729,37.503179],[127.141111,37.505443],[127.141175,37.515102],[127.163163,37.544991],[127.182796,37.54639],[127.181995,37.560992],[127.174343,37.580029],[127.104929,37.556422],[127.101122,37.561051],[127.101144,37.576071],[127.118095,37.605472],[127.111424,37.642087],[127.095789,37.684623],[127.081105,37.696137],[127.062368,37.693024],[127.051804,37.687067],[127.015415,37.701455],[126.994351,37.669811],[126.984713,37.647252],[126.963329,37.633245],[126.957108,37.652837],[126.947511,37.659185],[126.913721,37.644756],[126.899644,37.589817],[126.853632,37.571791],[126.802581,37.605033],[126.797923,37.600013],[126.793695,37.581594],[126.739013,37.593703],[126.714067,37.603854],[126.672422,37.633842],[126.654009,37.638214],[126.616488,37.603718],[126.574842,37.58835],[126.555072,37.610835],[126.53773,37.656553],[126.54416,37.662923],[126.51834,37.76279],[126.517998,37.777069],[126.522783,37.790098],[126.55468,37.777619],[126.575345,37.762704],[126.593773,37.761156],[126.662622,37.7807],[126.686612,37.872434],[126.672518,37.914186],[126.665714,37.920547],[126.67099,37.955178],[126.703154,37.974666],[126.758184,37.983733],[126.816845,38.002586],[126.867122,38.070232],[126.868896,38.08012],[126.860243,38.085676],[126.85607,38.099661],[126.86237,38.108329],[126.904703,38.137893],[126.921084,38.134001],[126.969172,38.145267],[126.965598,38.171103],[126.969594,38.199434],[126.981745,38.227345],[126.991591,38.229472],[126.99963,38.224026],[127.075187,38.276735],[127.103211,38.280788],[127.110729,38.270975],[127.111566,38.247388],[127.147656,38.2412],[127.161918,38.230078],[127.189241,38.161321],[127.219193,38.139065],[127.222042,38.137432],[127.256189,38.164332],[127.26448,38.171744],[127.265615,38.176942],[127.288706,38.165974],[127.274617,38.135829],[127.283482,38.116336],[127.32067,38.094684],[127.336958,38.089769],[127.339765,38.101295],[127.378614,38.118429],[127.43093,38.115362],[127.440453,38.108832],[127.445167,38.09747],[127.444584,38.057261],[127.456857,38.018456],[127.461543,38.012854],[127.471556,38.006453],[127.503923,37.997953],[127.531095,38.002388],[127.539877,38.000568],[127.547166,37.978281],[127.572123,37.963923],[127.602445,37.954999],[127.616584,37.928266],[127.616909,37.909798],[127.60747,37.887147],[127.597649,37.875371],[127.577887,37.874014],[127.529443,37.839723],[127.524803,37.829672],[127.530862,37.781431],[127.540924,37.770875],[127.54488,37.760075],[127.534076,37.748602],[127.511215,37.736435],[127.507112,37.731359],[127.507067,37.720594],[127.5118,37.715715],[127.559715,37.716564],[127.535655,37.650695],[127.537937,37.641478],[127.559402,37.628497],[127.580655,37.633398],[127.588296,37.642977],[127.602194,37.651537],[127.606216,37.650794],[127.659156,37.62327],[127.700836,37.596117],[127.759903,37.587009],[127.839511,37.559217],[127.848113,37.550334],[127.842023,37.538901],[127.809581,37.537862],[127.77179,37.505185],[127.774689,37.491746],[127.795151,37.472583],[127.799909,37.427271],[127.775792,37.378956],[127.759599,37.36706],[127.757884,37.346408],[127.762096,37.321139],[127.748599,37.224002],[127.744751,37.213646],[127.735578,37.205528],[127.695484,37.140422],[127.686798,37.135056],[127.637768,37.14119],[127.63517,37.103667],[127.631814,37.096476],[127.596271,37.07371],[127.542418,37.049819],[127.518582,37.057558],[127.468212,37.053487],[127.456857,37.042213],[127.459699,37.03813],[127.458368,37.020474],[127.389379,36.980081],[127.401534,36.967678],[127.378212,36.952085],[127.340606,36.943115],[127.308994,36.929388],[127.290298,36.894328],[127.287829,36.893779],[127.270293,36.913271],[127.244049,36.917599],[127.217698,36.929409],[127.190751,36.952486],[127.155675,36.966869],[127.113098,36.973074],[127.096506,36.95934],[127.098436,36.954463],[127.091915,36.943448],[127.03178,36.928322],[127.025797,36.928747],[127.015568,36.935391],[126.995182,36.935359],[126.939626,36.917331],[126.909658,36.901596],[126.903649,36.9247],[126.899231,36.929902],[126.887085,36.936267],[126.867426,36.93327],[126.849609,36.946468],[126.823624,36.984095],[126.804133,36.997642],[126.794597,37.026475],[126.789371,37.029716],[126.750577,37.029712],[126.742684,37.038001]],[[126.733536,37.074622],[126.725858,37.120384],[126.744753,37.137067],[126.766703,37.146393],[126.777501,37.165205],[126.747168,37.167582],[126.741606,37.152964],[126.725156,37.132802],[126.703262,37.11821],[126.684047,37.11461],[126.733536,37.074622]]]}}, {"type" : "Feature", "properties" : {"adm_cd" : "35", "name" : "전라북도"}, "geometry" : {"type":"MultiPolygon","coordinates":[[[[126.541707,35.715049],[126.527598,35.729456],[126.533442,35.724754],[126.541707,35.715049]]],[[[126.527598,35.729456],[126.523984,35.731799],[126.521226,35.736141],[126.524465,35.732654],[126.527598,35.729456]]],[[[126.521226,35.736141],[126.519527,35.738041],[126.518092,35.741075],[126.521226,35.736141]]],[[[126.518092,35.741075],[126.510124,35.753613],[126.483239,35.809992],[126.493268,35.793866],[126.518092,35.741075]]],[[[126.699818,35.995748],[126.694419,35.989929],[126.671448,35.985787],[126.655865,35.987297],[126.657943,35.990542],[126.699818,35.995748]]],[[[126.429471,35.449639],[126.439132,35.4503],[126.482697,35.518342],[126.517901,35.532966],[126.581162,35.544592],[126.61391,35.56834],[126.626036,35.57347],[126.633195,35.574735],[126.648764,35.571071],[126.664185,35.556676],[126.669265,35.569848],[126.657542,35.586878],[126.575196,35.590415],[126.529219,35.579315],[126.508704,35.579203],[126.45997,35.610223],[126.466231,35.63502],[126.556367,35.697781],[126.541707,35.715049],[126.55817,35.69823],[126.569963,35.691641],[126.597396,35.714632],[126.619006,35.741635],[126.573714,35.776289],[126.603355,35.80602],[126.616303,35.811955],[126.645671,35.817287],[126.692834,35.797385],[126.706762,35.796516],[126.691554,35.825317],[126.671252,35.886548],[126.661936,35.88368],[126.612363,35.886284],[126.611699,35.929012],[126.617483,35.939876],[126.61603,35.942523],[126.593596,35.948341],[126.588037,35.947808],[126.588271,35.902722],[126.566168,35.90415],[126.542527,35.915114],[126.540015,35.932545],[126.534412,35.934002],[126.498905,35.847638],[126.500949,35.843121],[126.498353,35.835442],[126.472843,35.810953],[126.462811,35.81274],[126.453984,35.806247],[126.449389,35.806726],[126.441655,35.827678],[126.443765,35.830991],[126.453672,35.831527],[126.461939,35.824541],[126.475296,35.822325],[126.496546,35.847085],[126.528694,35.925607],[126.529031,35.938214],[126.522963,35.94942],[126.522011,35.963758],[126.52584,35.973632],[126.617241,35.977461],[126.683346,35.985873],[126.710914,35.9929],[126.728714,35.985359],[126.739137,35.986734],[126.74753,35.992306],[126.755932,36.010542],[126.741661,36.012206],[126.748047,36.025751],[126.807892,36.035507],[126.868037,36.062411],[126.874869,36.11253],[126.882205,36.131293],[126.895248,36.142449],[126.967463,36.153637],[127.039687,36.138272],[127.063009,36.125223],[127.056958,36.11312],[127.063132,36.091569],[127.091536,36.07305],[127.122694,36.063582],[127.205913,36.10059],[127.225919,36.099142],[127.274522,36.107425],[127.293935,36.113072],[127.297068,36.122731],[127.301691,36.125204],[127.32686,36.130841],[127.335859,36.129793],[127.353055,36.11361],[127.359943,36.08832],[127.361839,36.063766],[127.376831,36.028844],[127.401223,36.008736],[127.413406,36.015156],[127.41959,36.022704],[127.434557,36.029495],[127.448606,35.993151],[127.456746,35.983276],[127.508889,35.979781],[127.53364,35.992007],[127.53769,36.026736],[127.531421,36.040843],[127.58977,36.026046],[127.605587,36.012134],[127.639748,36.032252],[127.630535,36.042152],[127.618491,36.041936],[127.620551,36.064205],[127.623924,36.067272],[127.638203,36.068229],[127.654875,36.055035],[127.669776,36.051375],[127.696039,36.050381],[127.710933,36.035811],[127.75874,36.025432],[127.799441,36.026066],[127.848551,36.039722],[127.876774,36.022512],[127.875597,35.996913],[127.893218,35.986784],[127.909856,35.951407],[127.882237,35.928884],[127.885059,35.909606],[127.862452,35.906629],[127.850746,35.890052],[127.85162,35.886702],[127.834952,35.866899],[127.779209,35.845732],[127.752643,35.840309],[127.738323,35.831741],[127.731174,35.814859],[127.708327,35.791462],[127.668414,35.771063],[127.663502,35.764035],[127.660956,35.709906],[127.6575,35.705795],[127.649438,35.703796],[127.642618,35.693159],[127.620389,35.646989],[127.613017,35.608248],[127.585518,35.554743],[127.62533,35.531403],[127.643723,35.501334],[127.636688,35.459352],[127.645186,35.449127],[127.668977,35.449019],[127.674069,35.44572],[127.660474,35.414434],[127.639781,35.401292],[127.610197,35.365918],[127.612237,35.35585],[127.623331,35.342166],[127.620738,35.332563],[127.604781,35.318375],[127.591869,35.311496],[127.577481,35.308901],[127.502015,35.358363],[127.47173,35.364739],[127.436279,35.36195],[127.423236,35.351338],[127.392699,35.307346],[127.384567,35.302458],[127.380086,35.303679],[127.375516,35.312198],[127.354256,35.322355],[127.323467,35.307409],[127.307036,35.30452],[127.257168,35.31246],[127.183907,35.329876],[127.141321,35.309178],[127.116272,35.299766],[127.105235,35.299233],[127.061784,35.317129],[127.065083,35.336531],[127.070462,35.340709],[127.062622,35.376549],[127.057619,35.382653],[127.048857,35.377375],[127.039098,35.380143],[127.027463,35.394679],[127.027016,35.399855],[127.041711,35.398719],[127.04693,35.402194],[127.052315,35.426516],[127.035902,35.459037],[127.023937,35.464233],[127.004712,35.46381],[126.998483,35.456732],[127.000049,35.451989],[126.976101,35.400046],[126.963103,35.394954],[126.935368,35.394556],[126.903068,35.420627],[126.898554,35.432208],[126.898984,35.436379],[126.905113,35.440818],[126.896775,35.447986],[126.842948,35.478744],[126.823343,35.486914],[126.762956,35.466285],[126.737715,35.449494],[126.751728,35.435905],[126.752329,35.416682],[126.73126,35.376883],[126.7225,35.36686],[126.652719,35.327627],[126.644171,35.320306],[126.626416,35.321354],[126.609096,35.331143],[126.584998,35.317363],[126.578663,35.3032],[126.534225,35.307325],[126.523853,35.316126],[126.515504,35.329463],[126.520474,35.348671],[126.490614,35.395215],[126.491629,35.411299],[126.480385,35.421048],[126.469885,35.425494],[126.447787,35.429611],[126.429471,35.449639]]]]}}, {"type" : "Feature", "properties" : {"adm_cd" : "38", "name" : "경상남도"}, "geometry" : {"type":"MultiPolygon","coordinates":[[[[128.340567,34.820657],[128.340557,34.820633],[128.340565,34.820654],[128.340567,34.820657]]],[[[128.032748,34.920029],[128.026355,34.904126],[128.015097,34.892235],[128.009988,34.867391],[128.020256,34.863515],[128.024534,34.865938],[128.021512,34.880748],[128.030253,34.892389],[128.036857,34.898099],[128.047541,34.894239],[128.064108,34.878064],[128.085194,34.835829],[128.084699,34.828969],[128.042055,34.839901],[127.988782,34.836311],[127.96929,34.843392],[127.96154,34.863529],[127.963465,34.871355],[128.002839,34.915264],[128.016814,34.919929],[128.030324,34.921944],[128.032748,34.920029]]],[[[127.903848,34.860691],[127.925107,34.830569],[127.943642,34.810107],[127.953637,34.805011],[127.965796,34.808696],[127.989705,34.832286],[128.0316,34.831138],[128.063171,34.818749],[128.061373,34.805595],[128.055712,34.801993],[128.051182,34.772412],[128.060222,34.709381],[128.044324,34.702278],[128.019509,34.702449],[128.02615,34.718426],[128.014969,34.724168],[127.985502,34.719467],[127.986235,34.712919],[127.983086,34.709023],[127.957106,34.709391],[127.94425,34.747113],[127.948361,34.765748],[127.954512,34.772664],[127.949231,34.777539],[127.927636,34.775505],[127.903395,34.765006],[127.913012,34.740345],[127.906093,34.727738],[127.890665,34.721735],[127.861719,34.730714],[127.8378,34.75754],[127.841307,34.788552],[127.813245,34.833914],[127.808096,34.853569],[127.811067,34.861615],[127.827532,34.874242],[127.833263,34.890442],[127.856217,34.927625],[127.87071,34.941975],[127.894256,34.946986],[127.925021,34.939159],[127.926301,34.919556],[127.920464,34.892281],[127.901381,34.884064],[127.898407,34.875408],[127.903848,34.860691]]],[[[128.67367,34.786637],[128.669994,34.780738],[128.658793,34.77447],[128.648634,34.779042],[128.640105,34.772176],[128.627254,34.736896],[128.633264,34.718313],[128.641815,34.714884],[128.638191,34.707623],[128.576836,34.702552],[128.575976,34.778671],[128.593911,34.82888],[128.588775,34.846979],[128.5724,34.854007],[128.52685,34.82849],[128.52825,34.821356],[128.516317,34.808269],[128.510838,34.808986],[128.481199,34.842267],[128.472625,34.872114],[128.476571,34.883856],[128.493362,34.901566],[128.527508,34.923585],[128.534555,34.921341],[128.548504,34.907443],[128.565943,34.899045],[128.575977,34.901008],[128.579474,34.911525],[128.621336,34.897609],[128.586031,34.942965],[128.586684,34.946841],[128.599793,34.967886],[128.60624,34.969984],[128.648177,34.967514],[128.676355,35.038585],[128.712372,35.031547],[128.719992,35.019216],[128.717911,35.009901],[128.711506,35.00653],[128.704803,35.008553],[128.692913,34.995733],[128.696785,34.972933],[128.722586,34.949438],[128.717711,34.921855],[128.707285,34.899234],[128.696671,34.891303],[128.697663,34.874935],[128.709845,34.868838],[128.724269,34.887344],[128.731043,34.890126],[128.745274,34.886813],[128.743843,34.868213],[128.735082,34.843304],[128.725032,34.841507],[128.717566,34.849651],[128.701791,34.839171],[128.702905,34.832573],[128.707243,34.828934],[128.726143,34.82801],[128.739906,34.786958],[128.709524,34.795129],[128.715326,34.800825],[128.709523,34.812361],[128.673235,34.814126],[128.66617,34.810551],[128.666168,34.793394],[128.67367,34.786637]]],[[[128.771353,35.062857],[128.752801,35.061467],[128.756026,35.077363],[128.751272,35.082195],[128.702371,35.101079],[128.695495,35.110096],[128.700868,35.116605],[128.696337,35.138432],[128.69093,35.147641],[128.67959,35.14675],[128.670837,35.142484],[128.677759,35.12628],[128.666267,35.118501],[128.645641,35.145827],[128.625841,35.144539],[128.612049,35.14779],[128.592642,35.17449],[128.58925,35.195274],[128.589329,35.199405],[128.608636,35.211946],[128.588768,35.209743],[128.56459,35.184544],[128.570398,35.17499],[128.579761,35.172732],[128.590867,35.157941],[128.597445,35.142274],[128.588043,35.131132],[128.634921,35.068825],[128.600706,35.056749],[128.573641,35.05376],[128.561159,35.069074],[128.564917,35.082683],[128.527592,35.104718],[128.470645,35.098212],[128.465313,35.085659],[128.428081,35.055214],[128.396074,35.052669],[128.373597,35.047524],[128.366749,35.018462],[128.372801,35.015204],[128.388901,35.016958],[128.389249,35.032049],[128.439412,35.047728],[128.445985,35.05415],[128.442414,35.060477],[128.445215,35.06698],[128.468959,35.075598],[128.481502,35.065913],[128.501605,35.015777],[128.492993,35.005861],[128.466639,34.988048],[128.414742,34.996838],[128.407298,34.994051],[128.406176,34.986107],[128.40952,34.98354],[128.417812,34.986785],[128.434273,34.985087],[128.441397,34.981979],[128.443683,34.977661],[128.443845,34.968461],[128.429082,34.956949],[128.417737,34.910204],[128.421374,34.872964],[128.432562,34.877293],[128.444234,34.9],[128.438215,34.911973],[128.44042,34.91334],[128.452621,34.914762],[128.471267,34.891776],[128.466554,34.87623],[128.440704,34.828054],[128.440138,34.794678],[128.434614,34.779067],[128.424072,34.763498],[128.406553,34.762404],[128.397396,34.768236],[128.378919,34.815406],[128.357338,34.825482],[128.34559,34.825406],[128.340567,34.820657],[128.347676,34.837876],[128.382202,34.822102],[128.387754,34.815463],[128.404966,34.8326],[128.401695,34.83599],[128.381347,34.84223],[128.358984,34.870071],[128.316879,34.879838],[128.297792,34.900108],[128.308585,34.908769],[128.338956,34.90852],[128.349752,34.905285],[128.355819,34.908918],[128.340465,34.948482],[128.32028,34.962917],[128.301606,34.937262],[128.304925,34.919398],[128.300313,34.912663],[128.27286,34.899709],[128.260943,34.926248],[128.268633,34.930106],[128.267666,34.93893],[128.23992,34.943814],[128.219039,34.944396],[128.19699,34.937206],[128.203153,34.899924],[128.166159,34.897258],[128.13318,34.88819],[128.111086,34.902747],[128.101257,34.914064],[128.057361,34.927341],[128.046409,34.935147],[128.040203,34.941282],[128.032969,34.958334],[128.038737,34.996653],[128.035793,35.024728],[128.038441,35.053292],[128.044891,35.067094],[128.057073,35.075979],[128.051991,35.079725],[128.036343,35.068801],[128.025835,35.056559],[128.028732,35.049596],[128.025844,35.034103],[128.020035,35.028245],[128.005641,35.033407],[128.019462,35.040744],[128.009891,35.049911],[127.985977,35.046284],[127.976099,35.033023],[127.984536,35.031869],[127.989107,35.034193],[127.998843,35.030144],[128.018401,35.01005],[128.019869,35.004608],[128.009577,34.987195],[127.983311,34.975733],[127.947198,34.98361],[127.931621,34.992144],[127.916529,34.989827],[127.897392,34.956516],[127.8711,34.947042],[127.847807,34.946922],[127.838822,34.950171],[127.818605,34.944954],[127.803362,34.933176],[127.805569,34.924136],[127.798558,34.922746],[127.773356,34.956554],[127.759392,34.966776],[127.780342,34.989731],[127.786768,35.010926],[127.785208,35.020424],[127.757153,35.055018],[127.697263,35.101778],[127.694629,35.124998],[127.688684,35.135171],[127.659546,35.158572],[127.648372,35.160392],[127.625256,35.182453],[127.616884,35.206907],[127.620728,35.212657],[127.619184,35.235446],[127.609284,35.262219],[127.595697,35.268133],[127.576997,35.29696],[127.577481,35.308901],[127.594871,35.312904],[127.620738,35.332563],[127.623331,35.342166],[127.612237,35.35585],[127.610197,35.365918],[127.639781,35.401292],[127.660474,35.414434],[127.674069,35.44572],[127.668977,35.449019],[127.645186,35.449127],[127.636688,35.459352],[127.643723,35.501334],[127.62533,35.531403],[127.585518,35.554743],[127.613017,35.608248],[127.620389,35.646989],[127.642618,35.693159],[127.649438,35.703796],[127.6575,35.705795],[127.660956,35.709906],[127.662288,35.76083],[127.665879,35.768904],[127.708327,35.791462],[127.731174,35.814859],[127.738323,35.831741],[127.752643,35.840309],[127.779209,35.845732],[127.834952,35.866899],[127.85162,35.886702],[127.850746,35.890052],[127.862452,35.906629],[127.882234,35.909931],[127.885059,35.909606],[127.882192,35.903186],[127.885794,35.892999],[127.893521,35.886799],[127.918508,35.89046],[127.93022,35.878629],[127.933221,35.864398],[127.986499,35.851987],[127.996994,35.837052],[128.011216,35.829079],[128.069786,35.841202],[128.123056,35.822433],[128.121903,35.803494],[128.130524,35.789004],[128.137526,35.78426],[128.14896,35.784154],[128.189279,35.75176],[128.201024,35.723251],[128.203831,35.685926],[128.177747,35.673364],[128.163676,35.672975],[128.159328,35.65677],[128.163893,35.65307],[128.213864,35.640777],[128.229732,35.639459],[128.298065,35.656227],[128.349168,35.646446],[128.357939,35.637356],[128.371363,35.609414],[128.382399,35.60654],[128.415755,35.619986],[128.445766,35.636701],[128.480692,35.63714],[128.508277,35.649255],[128.507551,35.672858],[128.529851,35.683015],[128.526808,35.673504],[128.536626,35.624261],[128.572957,35.593216],[128.584753,35.586465],[128.605796,35.580244],[128.636532,35.584698],[128.655289,35.597888],[128.687604,35.595025],[128.694003,35.588348],[128.758136,35.567493],[128.787733,35.567497],[128.808886,35.588923],[128.826295,35.596775],[128.833648,35.597354],[128.842639,35.588994],[128.845696,35.589619],[128.871966,35.618251],[128.887245,35.629108],[128.915054,35.640619],[128.941145,35.635073],[128.951198,35.630154],[128.961414,35.617354],[128.982642,35.608705],[129.00274,35.620258],[129.022455,35.614223],[129.022755,35.591265],[129.019196,35.584264],[128.99408,35.566997],[128.989348,35.551605],[128.994586,35.528131],[129.05263,35.514472],[129.090619,35.498305],[129.143152,35.445654],[129.165645,35.43212],[129.178359,35.43226],[129.192057,35.436622],[129.211457,35.419063],[129.218884,35.406971],[129.20117,35.387782],[129.198762,35.366496],[129.19369,35.36198],[129.17614,35.351398],[129.134587,35.351451],[129.125635,35.331866],[129.105552,35.30653],[129.070169,35.294342],[129.011623,35.263319],[128.994292,35.234041],[128.984158,35.229756],[128.920128,35.216423],[128.886401,35.214478],[128.878988,35.209995],[128.870355,35.201559],[128.880675,35.180907],[128.876657,35.151279],[128.871663,35.150465],[128.865607,35.159431],[128.849162,35.165484],[128.79452,35.158538],[128.796042,35.152878],[128.815357,35.132635],[128.834614,35.127495],[128.843169,35.109167],[128.835537,35.102133],[128.820527,35.096635],[128.828699,35.08997],[128.811515,35.077585],[128.785705,35.077542],[128.782482,35.08264],[128.789949,35.094027],[128.800504,35.093859],[128.801759,35.099772],[128.788348,35.106971],[128.76296,35.105168],[128.765601,35.097629],[128.784196,35.097549],[128.771353,35.062857]],[[128.609693,35.21209],[128.624704,35.212837],[128.633102,35.219207],[128.633628,35.221507],[128.618466,35.213282],[128.609693,35.21209]]]]}}, {"type" : "Feature", "properties" : {"adm_cd" : "26", "name" : "울산광역시"}, "geometry" : {"type":"Polygon","coordinates":[[[129.452924,35.579067],[129.457953,35.554369],[129.443493,35.505723],[129.444939,35.492116],[129.432265,35.480539],[129.410957,35.471476],[129.406169,35.472046],[129.40425,35.485652],[129.40844,35.493255],[129.388059,35.526982],[129.37665,35.537994],[129.372442,35.523612],[129.375017,35.517567],[129.381932,35.516832],[129.385702,35.484851],[129.383239,35.468248],[129.368687,35.454235],[129.365057,35.441405],[129.362783,35.401664],[129.344789,35.353905],[129.318355,35.338358],[129.307696,35.328544],[129.266107,35.38416],[129.236431,35.382986],[129.218536,35.378955],[129.20117,35.387782],[129.218888,35.409302],[129.192057,35.436622],[129.178359,35.43226],[129.165645,35.43212],[129.140466,35.447629],[129.090619,35.498305],[129.05263,35.514472],[128.994586,35.528131],[128.989348,35.551605],[128.99408,35.566997],[129.018895,35.58382],[129.022755,35.591265],[129.023018,35.613439],[129.003865,35.621708],[129.067273,35.661992],[129.069877,35.682372],[129.083068,35.697644],[129.101759,35.706067],[129.156935,35.719218],[129.218007,35.713172],[129.25685,35.700703],[129.262593,35.691127],[129.255504,35.660456],[129.260445,35.654638],[129.296257,35.644741],[129.327821,35.658836],[129.348751,35.677178],[129.355991,35.679395],[129.449787,35.651069],[129.441628,35.644722],[129.441054,35.631924],[129.450084,35.614837],[129.457865,35.613865],[129.462599,35.60682],[129.46466,35.58657],[129.452924,35.579067]]]}}, {"type" : "Feature", "properties" : {"adm_cd" : "33", "name" : "충청북도"}, "geometry" : {"type":"Polygon","coordinates":[[[127.310482,36.724287],[127.339203,36.729725],[127.343166,36.735695],[127.334604,36.746346],[127.358819,36.760575],[127.385593,36.75954],[127.396021,36.747933],[127.404439,36.746017],[127.420417,36.760838],[127.400787,36.799092],[127.382157,36.813753],[127.334099,36.83236],[127.310799,36.871081],[127.307884,36.885387],[127.287829,36.893779],[127.297369,36.903961],[127.308994,36.929388],[127.340606,36.943115],[127.378212,36.952085],[127.399454,36.965918],[127.401534,36.967678],[127.389379,36.980081],[127.458368,37.020474],[127.459699,37.03813],[127.456857,37.042213],[127.468212,37.053487],[127.518582,37.057558],[127.542418,37.049819],[127.596271,37.07371],[127.631814,37.096476],[127.63517,37.103667],[127.637768,37.14119],[127.688593,37.135541],[127.695484,37.140422],[127.735578,37.205528],[127.744751,37.213646],[127.755997,37.170853],[127.765489,37.159141],[127.789524,37.143408],[127.84688,37.152807],[127.861377,37.158607],[127.926327,37.165527],[127.933626,37.175803],[127.934489,37.190378],[127.932,37.205585],[127.921724,37.225382],[127.938881,37.240743],[127.971915,37.256378],[127.986942,37.257841],[128.007965,37.252122],[128.018257,37.245714],[128.033082,37.210808],[128.028298,37.202323],[128.033907,37.191409],[128.041074,37.188991],[128.074311,37.193085],[128.100001,37.201695],[128.111589,37.207743],[128.115211,37.21664],[128.14204,37.228598],[128.201175,37.24897],[128.207799,37.248823],[128.258836,37.218231],[128.268394,37.207923],[128.309617,37.218302],[128.316396,37.222421],[128.331112,37.212702],[128.326387,37.197291],[128.295624,37.183288],[128.264442,37.160415],[128.279964,37.142473],[128.295708,37.136027],[128.334907,37.155124],[128.384352,37.158122],[128.401364,37.144627],[128.405752,37.126988],[128.419742,37.117217],[128.435236,37.11127],[128.481681,37.113737],[128.496554,37.125791],[128.534136,37.098112],[128.538131,37.089627],[128.591847,37.078155],[128.606643,37.076698],[128.615032,37.081881],[128.627627,37.079301],[128.652096,37.06544],[128.637856,37.051554],[128.607096,37.049748],[128.583526,37.043734],[128.565645,37.03153],[128.572906,37.0208],[128.570344,37.013995],[128.554731,36.998286],[128.462782,36.947384],[128.450436,36.930789],[128.424339,36.878109],[128.436929,36.873561],[128.447998,36.864388],[128.449031,36.847842],[128.421143,36.811807],[128.357139,36.808186],[128.316096,36.820807],[128.295624,36.835341],[128.282476,36.855963],[128.241826,36.872326],[128.213008,36.839134],[128.217316,36.819374],[128.21537,36.812002],[128.133976,36.828441],[128.085373,36.804204],[128.06736,36.816767],[128.059637,36.816773],[128.053243,36.791684],[128.032367,36.75517],[128.032325,36.747576],[128.067988,36.722234],[128.072724,36.711886],[128.070384,36.707705],[127.986848,36.717549],[127.972669,36.72689],[127.95145,36.720615],[127.928919,36.690839],[127.89389,36.694382],[127.874293,36.681961],[127.88001,36.678709],[127.89167,36.68244],[127.908568,36.679483],[127.929572,36.668765],[127.937644,36.645449],[127.932377,36.618743],[127.925242,36.602814],[127.919962,36.601118],[127.897275,36.626737],[127.884926,36.642785],[127.879658,36.656767],[127.873936,36.655046],[127.860626,36.635365],[127.854071,36.618123],[127.798467,36.602077],[127.796152,36.595265],[127.798476,36.586442],[127.804897,36.581387],[127.824471,36.570907],[127.852363,36.571153],[127.860423,36.567951],[127.902463,36.52807],[127.906336,36.506944],[127.897607,36.49848],[127.886196,36.493003],[127.87599,36.44897],[127.875722,36.390593],[127.884167,36.380013],[127.890836,36.356571],[127.881431,36.345136],[127.852564,36.329632],[127.845772,36.318118],[127.841534,36.308312],[127.849586,36.281308],[127.860862,36.27706],[127.877897,36.275381],[127.889452,36.288513],[127.905571,36.291222],[127.942803,36.26673],[127.977947,36.257333],[127.983935,36.262843],[128.010317,36.272152],[128.039628,36.259218],[128.038999,36.222182],[128.024048,36.206649],[128.009748,36.209362],[127.998775,36.207466],[127.978016,36.198111],[127.975332,36.187711],[127.990771,36.151424],[127.988853,36.132656],[127.986862,36.128049],[127.976423,36.122733],[127.961835,36.077171],[127.928103,36.050802],[127.916782,36.054238],[127.884837,36.035889],[127.876774,36.022512],[127.848551,36.039722],[127.799441,36.026066],[127.75874,36.025432],[127.710933,36.035811],[127.696039,36.050381],[127.669776,36.051375],[127.654875,36.055035],[127.638203,36.068229],[127.610078,36.118572],[127.605529,36.118203],[127.589481,36.134297],[127.595908,36.15349],[127.599658,36.205091],[127.597779,36.2175],[127.583582,36.231296],[127.549049,36.239728],[127.519219,36.241822],[127.492577,36.237954],[127.486048,36.261248],[127.500559,36.339294],[127.522396,36.354325],[127.525669,36.387322],[127.539159,36.397192],[127.550213,36.396612],[127.552614,36.402839],[127.54186,36.415858],[127.524319,36.423432],[127.514513,36.422474],[127.510466,36.409639],[127.501555,36.408654],[127.479182,36.456296],[127.463513,36.460298],[127.458405,36.452299],[127.447162,36.449195],[127.401437,36.456704],[127.398922,36.489105],[127.396121,36.491721],[127.410575,36.496343],[127.405013,36.537311],[127.401515,36.541493],[127.33655,36.569986],[127.304361,36.590655],[127.306534,36.601384],[127.300062,36.617194],[127.279969,36.633972],[127.278585,36.641344],[127.288688,36.658898],[127.295927,36.65957],[127.30509,36.66757],[127.30753,36.678316],[127.304362,36.68481],[127.28529,36.690671],[127.310482,36.724287]]]}}, {"type" : "Feature", "properties" : {"adm_cd" : "36", "name" : "전라남도"}, "geometry" : {"type":"MultiPolygon","coordinates":[[[[126.539327,34.181954],[126.569234,34.169843],[126.620832,34.1646],[126.620653,34.155231],[126.61619,34.148516],[126.604142,34.145979],[126.594555,34.161355],[126.589676,34.162341],[126.579146,34.157628],[126.558969,34.135329],[126.545956,34.126561],[126.528232,34.122102],[126.511874,34.122058],[126.506638,34.140613],[126.508362,34.161615],[126.539327,34.181954]]],[[[126.649859,34.199845],[126.684709,34.181589],[126.679024,34.175552],[126.665537,34.174412],[126.671781,34.147313],[126.68025,34.139495],[126.66954,34.121034],[126.659638,34.111944],[126.636963,34.131096],[126.63131,34.144956],[126.633255,34.18803],[126.649859,34.199845]]],[[[126.896898,34.212087],[126.909574,34.21346],[126.928472,34.189574],[126.915314,34.154128],[126.908655,34.151354],[126.856456,34.150515],[126.84838,34.162761],[126.847054,34.174148],[126.854756,34.18708],[126.875857,34.212926],[126.890657,34.217413],[126.896898,34.212087]]],[[[126.567913,34.233809],[126.579145,34.228257],[126.606638,34.224448],[126.622249,34.206869],[126.613747,34.181447],[126.59003,34.17279],[126.561265,34.178877],[126.555106,34.200146],[126.553152,34.233449],[126.567913,34.233809]]],[[[127.067904,34.338048],[127.069589,34.339247],[127.069147,34.337916],[127.067904,34.338048]]],[[[126.839289,34.312393],[126.829219,34.325644],[126.780168,34.328069],[126.762052,34.333242],[126.78689,34.3461],[126.800018,34.335224],[126.81812,34.341195],[126.868315,34.350133],[126.896715,34.344789],[126.899247,34.342183],[126.897269,34.332721],[126.882552,34.310864],[126.842091,34.298946],[126.836801,34.306112],[126.839289,34.312393]]],[[[127.029772,34.380848],[127.040276,34.368012],[127.063565,34.359113],[127.07612,34.361582],[127.085517,34.35731],[127.090602,34.344393],[127.089043,34.339089],[127.086649,34.343195],[127.067274,34.347144],[127.061981,34.340811],[127.067904,34.338048],[127.042602,34.316664],[127.042124,34.308345],[127.038714,34.311446],[127.036767,34.325364],[127.049002,34.328415],[127.032411,34.344395],[127.007797,34.357506],[127.029772,34.380848]]],[[[126.68819,34.399998],[126.701424,34.398415],[126.727165,34.382911],[126.730868,34.377371],[126.732776,34.368415],[126.7296,34.361988],[126.735909,34.343064],[126.767463,34.305159],[126.777722,34.287575],[126.702057,34.297036],[126.68267,34.306737],[126.648879,34.332198],[126.638981,34.382143],[126.647555,34.391464],[126.653436,34.393444],[126.68819,34.399998]]],[[[126.943163,34.392947],[126.949229,34.373246],[126.94789,34.367769],[126.908354,34.353327],[126.869746,34.368362],[126.863703,34.373381],[126.866254,34.391781],[126.866682,34.404208],[126.873912,34.407229],[126.908205,34.40227],[126.913351,34.393953],[126.918661,34.392534],[126.930727,34.390636],[126.943163,34.392947]]],[[[126.833191,34.437082],[126.84501,34.430614],[126.865258,34.394724],[126.865269,34.389586],[126.814696,34.382531],[126.804301,34.385504],[126.793304,34.382328],[126.783194,34.369083],[126.779421,34.353905],[126.766578,34.363563],[126.755428,34.382681],[126.76406,34.409239],[126.788343,34.432664],[126.834569,34.443719],[126.833191,34.437082]]],[[[127.478503,34.464124],[127.5052,34.470252],[127.537051,34.448022],[127.537083,34.433982],[127.530936,34.424027],[127.492038,34.411753],[127.487233,34.413489],[127.463413,34.446691],[127.452122,34.468784],[127.453905,34.474588],[127.457143,34.476374],[127.478503,34.464124]]],[[[127.216498,34.495603],[127.231186,34.485273],[127.235015,34.475752],[127.217909,34.437221],[127.207872,34.430162],[127.16751,34.435208],[127.143125,34.427603],[127.137065,34.428313],[127.099262,34.443184],[127.104108,34.469436],[127.116787,34.479902],[127.141673,34.472775],[127.189478,34.494278],[127.216498,34.495603]]],[[[127.458958,34.545551],[127.478812,34.536175],[127.506437,34.492016],[127.496028,34.484705],[127.458824,34.47852],[127.450969,34.481922],[127.440891,34.492319],[127.436413,34.523394],[127.453609,34.543167],[127.458958,34.545551]]],[[[127.757832,34.551546],[127.790878,34.502638],[127.793874,34.495155],[127.789915,34.486904],[127.767018,34.489258],[127.734799,34.503143],[127.696304,34.538879],[127.740416,34.553144],[127.757832,34.551546]]],[[[126.252207,34.584216],[126.257598,34.587392],[126.278784,34.583866],[126.303909,34.570052],[126.309757,34.56324],[126.306538,34.559011],[126.345244,34.537691],[126.382811,34.505315],[126.384288,34.480441],[126.337642,34.40366],[126.324092,34.40492],[126.327388,34.406353],[126.326913,34.415126],[126.320228,34.424508],[126.292615,34.408897],[126.289493,34.394027],[126.296922,34.390683],[126.301654,34.395184],[126.310283,34.381685],[126.308641,34.373812],[126.289349,34.364566],[126.279573,34.369448],[126.284167,34.388326],[126.28752,34.389588],[126.259579,34.389147],[126.213294,34.363299],[126.214123,34.360291],[126.180042,34.348949],[126.160611,34.353688],[126.156197,34.357762],[126.159116,34.362513],[126.129423,34.360464],[126.090995,34.413989],[126.08924,34.418613],[126.097702,34.437058],[126.116812,34.459799],[126.148748,34.477635],[126.190674,34.514316],[126.228041,34.535841],[126.233659,34.534427],[126.23597,34.536546],[126.250906,34.563017],[126.24572,34.567464],[126.239714,34.566589],[126.238394,34.583833],[126.241442,34.587411],[126.249826,34.589081],[126.252207,34.584216]]],[[[126.049948,34.628473],[126.074612,34.625584],[126.093357,34.606469],[126.104964,34.584808],[126.09413,34.568721],[126.102069,34.555277],[126.056387,34.530615],[126.031231,34.530985],[126.026479,34.536779],[126.026213,34.555324],[126.030829,34.561178],[126.043572,34.56527],[126.062777,34.559374],[126.084091,34.584576],[126.053567,34.606668],[126.048383,34.615311],[126.049948,34.628473]]],[[[126.016671,34.635168],[126.030081,34.634578],[126.039406,34.63027],[126.049161,34.610265],[126.055017,34.604368],[126.06443,34.583207],[126.055888,34.568191],[126.019173,34.56417],[126.010826,34.627964],[126.016671,34.635168]]],[[[126.160364,34.669036],[126.174761,34.658886],[126.189711,34.633254],[126.130363,34.613266],[126.12203,34.61544],[126.122195,34.64476],[126.128308,34.654915],[126.149792,34.672014],[126.160364,34.669036]]],[[[125.425139,34.696657],[125.430444,34.692367],[125.444335,34.688622],[125.46144,34.693453],[125.46409,34.687346],[125.460459,34.686858],[125.457949,34.680932],[125.454209,34.686108],[125.443862,34.681215],[125.442245,34.665256],[125.43457,34.65927],[125.427432,34.659489],[125.411474,34.643209],[125.408641,34.636636],[125.410875,34.624323],[125.395202,34.630055],[125.384645,34.64332],[125.397561,34.645792],[125.399189,34.648394],[125.397311,34.652495],[125.392007,34.651499],[125.386707,34.657265],[125.388743,34.660762],[125.39731,34.66188],[125.397542,34.674369],[125.412058,34.696876],[125.425139,34.696657]]],[[[126.081989,34.713614],[126.082395,34.709809],[126.081392,34.708328],[126.081348,34.711611],[126.081989,34.713614]]],[[[127.756052,34.731367],[127.786992,34.715742],[127.790976,34.702892],[127.788958,34.699534],[127.775869,34.702259],[127.780598,34.707761],[127.778514,34.711984],[127.76589,34.710991],[127.759172,34.703882],[127.783225,34.671354],[127.790349,34.669977],[127.797922,34.654195],[127.794146,34.630135],[127.795932,34.604769],[127.807894,34.596548],[127.803693,34.587849],[127.791985,34.584879],[127.749264,34.592898],[127.711763,34.621472],[127.721554,34.653883],[127.744958,34.666614],[127.753957,34.681827],[127.756356,34.707677],[127.746732,34.715778],[127.736913,34.731308],[127.741384,34.73368],[127.756052,34.731367]]],[[[125.970017,34.725567],[125.99062,34.719302],[125.990741,34.711354],[125.994107,34.707785],[125.999855,34.702914],[126.013535,34.70312],[126.01365,34.698152],[126.007226,34.684696],[125.989573,34.679616],[125.978581,34.671614],[125.979849,34.664149],[125.975,34.659416],[125.959899,34.657086],[125.953646,34.658715],[125.957302,34.668715],[125.954812,34.672536],[125.949554,34.672195],[125.948915,34.667633],[125.940381,34.665619],[125.920601,34.671491],[125.914022,34.687619],[125.915637,34.710797],[125.946556,34.719791],[125.961224,34.73713],[125.970017,34.725567]]],[[[126.145565,34.701456],[126.149801,34.714105],[126.141977,34.727791],[126.087716,34.718561],[126.081989,34.713614],[126.080536,34.722431],[126.070393,34.735543],[126.076873,34.76368],[126.095668,34.770454],[126.161033,34.757808],[126.171879,34.751449],[126.18283,34.723703],[126.177975,34.706439],[126.174579,34.70084],[126.145565,34.701456]]],[[[126.357802,34.77967],[126.367438,34.775133],[126.360328,34.74488],[126.350449,34.750423],[126.351996,34.771778],[126.357454,34.771992],[126.355422,34.785378],[126.357802,34.77967]]],[[[125.993443,34.806952],[125.996908,34.805435],[126.000552,34.79459],[125.998328,34.761673],[125.96185,34.747502],[125.936388,34.720265],[125.917571,34.716905],[125.905289,34.721311],[125.890937,34.733813],[125.889506,34.766622],[125.899258,34.779621],[125.905976,34.78034],[125.911759,34.77593],[125.938831,34.777378],[125.963679,34.786998],[125.969375,34.7936],[125.993443,34.806952]]],[[[126.115867,34.881978],[126.143836,34.880986],[126.15788,34.863339],[126.14901,34.839774],[126.118713,34.80039],[126.094042,34.797135],[126.04724,34.815469],[126.042852,34.825121],[126.047704,34.828134],[126.06643,34.813141],[126.080025,34.819047],[126.076033,34.828603],[126.059647,34.847684],[126.109093,34.868366],[126.115867,34.881978]]],[[[126.344028,34.837842],[126.344385,34.841574],[126.331728,34.850158],[126.312468,34.853242],[126.276539,34.855695],[126.263097,34.840037],[126.22674,34.847489],[126.226011,34.850325],[126.232341,34.86283],[126.243461,34.858723],[126.259817,34.858021],[126.27942,34.863408],[126.303657,34.88769],[126.295665,34.899943],[126.280539,34.909888],[126.284001,34.914587],[126.298759,34.921883],[126.338389,34.907936],[126.35148,34.897445],[126.349456,34.887262],[126.345183,34.894494],[126.326382,34.89167],[126.312876,34.878985],[126.314465,34.866586],[126.320277,34.862251],[126.352614,34.863509],[126.366151,34.856517],[126.3713,34.847224],[126.3729,34.832569],[126.367758,34.825392],[126.350086,34.813675],[126.328091,34.8215],[126.32819,34.824596],[126.344028,34.837842]]],[[[126.063077,34.932793],[126.068413,34.936779],[126.078758,34.931346],[126.099001,34.889458],[126.095282,34.876538],[126.065335,34.856906],[126.038789,34.850439],[126.023076,34.865215],[125.988175,34.865401],[125.986767,34.874708],[126.008353,34.897642],[126.022796,34.907035],[126.054602,34.912182],[126.06148,34.921327],[126.05642,34.938683],[126.063077,34.932793]]],[[[127.737954,34.940114],[127.747597,34.933479],[127.765208,34.931667],[127.784495,34.915516],[127.784241,34.886531],[127.775895,34.886729],[127.704628,34.91329],[127.70392,34.929444],[127.730242,34.951667],[127.739797,34.945887],[127.737954,34.940114]]],[[[126.163513,34.962927],[126.166465,34.969303],[126.133504,35.001288],[126.122183,35.000698],[126.11974,34.996641],[126.108351,34.997381],[126.098139,35.002096],[126.100457,35.007703],[126.132929,35.024678],[126.165528,35.020553],[126.176037,34.997194],[126.179003,34.973673],[126.163513,34.962927]]],[[[126.35742,35.068392],[126.345515,35.075436],[126.340299,35.082181],[126.35742,35.068392]]],[[[126.073789,35.069114],[126.044708,35.07981],[126.042182,35.084623],[126.053707,35.097434],[126.085522,35.110516],[126.117646,35.140514],[126.152216,35.147094],[126.163859,35.145786],[126.140616,35.135894],[126.125243,35.135873],[126.11719,35.115868],[126.12238,35.077143],[126.101307,35.047994],[126.095837,35.048024],[126.083402,35.055367],[126.073789,35.069114]]],[[[126.340299,35.082181],[126.331729,35.088482],[126.318753,35.088481],[126.3109,35.059299],[126.295854,35.054772],[126.291539,35.059787],[126.282535,35.062175],[126.260665,35.053425],[126.264143,35.042445],[126.274047,35.03817],[126.274545,35.034442],[126.259487,35.018673],[126.247733,35.01567],[126.2273,35.019798],[126.2296,35.03619],[126.235178,35.044359],[126.232734,35.052969],[126.19881,35.062957],[126.182432,35.059277],[126.161638,35.066663],[126.157241,35.089428],[126.159517,35.098772],[126.190375,35.112595],[126.218004,35.106534],[126.24515,35.111401],[126.256776,35.140428],[126.271317,35.150218],[126.278322,35.142329],[126.309907,35.127923],[126.320617,35.127482],[126.33371,35.149186],[126.345482,35.15565],[126.344628,35.140832],[126.338484,35.122534],[126.329625,35.109146],[126.331202,35.094728],[126.340299,35.082181]]],[[[127.751713,34.933512],[127.743302,34.937549],[127.739769,34.948715],[127.753562,34.957738],[127.751559,34.961942],[127.731091,34.954853],[127.701107,34.931898],[127.693362,34.916711],[127.673179,34.904406],[127.667923,34.908161],[127.670994,34.903092],[127.639374,34.883798],[127.618254,34.904964],[127.590369,34.877182],[127.604536,34.853484],[127.63621,34.828081],[127.670365,34.837144],[127.698645,34.859236],[127.762291,34.863558],[127.772749,34.861568],[127.776156,34.856068],[127.77488,34.837488],[127.745175,34.77741],[127.755567,34.760923],[127.75518,34.741619],[127.706685,34.721759],[127.699773,34.722506],[127.682345,34.732448],[127.662402,34.751155],[127.613788,34.706864],[127.621719,34.690479],[127.632615,34.683637],[127.640743,34.636953],[127.634495,34.628246],[127.613523,34.643813],[127.589844,34.651769],[127.553592,34.658596],[127.548504,34.712956],[127.567478,34.727997],[127.578773,34.733075],[127.594114,34.748456],[127.55968,34.804297],[127.554102,34.808929],[127.546413,34.810269],[127.51539,34.874598],[127.492697,34.875545],[127.49184,34.867594],[127.474269,34.84379],[127.400795,34.8251],[127.390343,34.828412],[127.381864,34.836551],[127.353516,34.839443],[127.390525,34.817999],[127.395176,34.796731],[127.386477,34.783029],[127.372928,34.741546],[127.378795,34.727213],[127.397756,34.706558],[127.421397,34.692048],[127.447616,34.66622],[127.470576,34.664806],[127.487527,34.651331],[127.506377,34.601459],[127.50572,34.594847],[127.482515,34.577277],[127.444656,34.576971],[127.411067,34.590051],[127.395405,34.586813],[127.396333,34.559603],[127.430952,34.555928],[127.431808,34.543371],[127.426196,34.521182],[127.366925,34.485533],[127.359165,34.492082],[127.340304,34.48745],[127.325053,34.470286],[127.321604,34.460569],[127.336994,34.457199],[127.339058,34.454369],[127.338472,34.445922],[127.327822,34.441609],[127.321584,34.441514],[127.311689,34.450308],[127.283047,34.491567],[127.281518,34.502008],[127.255267,34.520751],[127.195845,34.531753],[127.147159,34.520499],[127.125833,34.529355],[127.112977,34.547564],[127.114493,34.559693],[127.150526,34.594141],[127.162778,34.590385],[127.171433,34.594439],[127.172561,34.622629],[127.189291,34.643343],[127.227797,34.654704],[127.236743,34.692804],[127.252161,34.708451],[127.274897,34.716668],[127.278121,34.714956],[127.286532,34.696614],[127.279958,34.686845],[127.277574,34.674477],[127.288169,34.667221],[127.314699,34.664644],[127.319719,34.670052],[127.33361,34.707777],[127.326872,34.751834],[127.316017,34.752985],[127.303772,34.749732],[127.296794,34.74256],[127.294489,34.734633],[127.289172,34.732543],[127.264294,34.731674],[127.252312,34.741785],[127.252403,34.74778],[127.243691,34.759368],[127.229863,34.757865],[127.209649,34.738047],[127.210199,34.728877],[127.206107,34.718995],[127.186837,34.696181],[127.177742,34.691758],[127.158115,34.691796],[127.143282,34.693162],[127.136239,34.700482],[127.073679,34.663351],[127.048125,34.637466],[127.019414,34.626511],[126.992084,34.582162],[126.97687,34.51344],[126.977998,34.472997],[126.947026,34.456925],[126.918209,34.45335],[126.872566,34.452719],[126.868142,34.438764],[126.817958,34.44911],[126.792112,34.467453],[126.790057,34.520282],[126.79334,34.563517],[126.778891,34.613104],[126.772604,34.604319],[126.765394,34.563065],[126.761667,34.497988],[126.747853,34.472146],[126.729431,34.448423],[126.673777,34.418929],[126.664418,34.426985],[126.650628,34.423253],[126.61744,34.400468],[126.611159,34.38612],[126.619738,34.37654],[126.620207,34.358884],[126.585827,34.319822],[126.525042,34.292275],[126.52138,34.292957],[126.516098,34.305121],[126.515417,34.32074],[126.521215,34.324475],[126.526915,34.334441],[126.519888,34.360844],[126.510515,34.365157],[126.502119,34.364747],[126.47522,34.348109],[126.471136,34.348894],[126.464691,34.362141],[126.475118,34.383909],[126.498515,34.405448],[126.504997,34.405335],[126.516791,34.414237],[126.510943,34.437971],[126.506701,34.440733],[126.483598,34.433664],[126.471474,34.455483],[126.460772,34.481792],[126.471232,34.506828],[126.45628,34.530143],[126.429117,34.555377],[126.33027,34.570253],[126.309363,34.581151],[126.28025,34.611622],[126.262055,34.645053],[126.260393,34.692656],[126.28536,34.757158],[126.288901,34.759912],[126.298802,34.762115],[126.326062,34.742359],[126.347065,34.699936],[126.354925,34.693507],[126.368923,34.698839],[126.385298,34.719795],[126.389484,34.730834],[126.360562,34.742003],[126.375671,34.770528],[126.367438,34.775133],[126.368638,34.780915],[126.355406,34.794941],[126.356835,34.802247],[126.388566,34.83675],[126.399392,34.840112],[126.391391,34.955284],[126.372186,34.999419],[126.367307,34.994068],[126.362783,34.971942],[126.368973,34.925196],[126.363655,34.920008],[126.342672,34.914925],[126.329724,34.916411],[126.295069,34.965578],[126.297983,34.97436],[126.307275,34.986192],[126.313486,34.988404],[126.327257,34.966938],[126.342365,34.972106],[126.358072,34.9843],[126.358677,34.9928],[126.340807,34.997418],[126.33433,34.991267],[126.332595,34.993656],[126.390231,35.024295],[126.389941,35.034082],[126.381872,35.048558],[126.35742,35.068392],[126.390494,35.043024],[126.403337,35.02708],[126.426955,35.027182],[126.456297,35.073649],[126.465055,35.099958],[126.4457,35.106221],[126.421676,35.107069],[126.365845,35.16846],[126.356267,35.182612],[126.372473,35.19007],[126.378897,35.208668],[126.376797,35.211896],[126.354854,35.199092],[126.336675,35.195453],[126.299655,35.212332],[126.300599,35.232009],[126.308051,35.250905],[126.328861,35.279289],[126.339408,35.286038],[126.35024,35.286489],[126.352649,35.282962],[126.368935,35.284418],[126.378484,35.32764],[126.387334,35.35315],[126.397185,35.369227],[126.427542,35.360307],[126.404279,35.385645],[126.402768,35.404328],[126.406856,35.417156],[126.421379,35.427598],[126.447787,35.429611],[126.480385,35.421048],[126.492875,35.409238],[126.490614,35.395215],[126.520392,35.348875],[126.515504,35.329463],[126.523853,35.316126],[126.534225,35.307325],[126.578663,35.3032],[126.584998,35.317363],[126.609096,35.331143],[126.626416,35.321354],[126.644171,35.320306],[126.652719,35.327627],[126.7225,35.36686],[126.73126,35.376883],[126.752329,35.416682],[126.751728,35.435905],[126.737715,35.449494],[126.762956,35.466285],[126.823343,35.486914],[126.842948,35.478744],[126.896775,35.447986],[126.905113,35.440818],[126.898984,35.436379],[126.898554,35.432208],[126.903068,35.420627],[126.935368,35.394556],[126.963103,35.394954],[126.976101,35.400046],[127.000049,35.451989],[126.998483,35.456732],[127.004712,35.46381],[127.023937,35.464233],[127.035902,35.459037],[127.052315,35.426516],[127.04693,35.402194],[127.041711,35.398719],[127.027016,35.399855],[127.027463,35.394679],[127.039098,35.380143],[127.048857,35.377375],[127.057619,35.382653],[127.062622,35.376549],[127.070462,35.340709],[127.065083,35.336531],[127.061784,35.317129],[127.105235,35.299233],[127.116272,35.299766],[127.141321,35.309178],[127.183907,35.329876],[127.257168,35.31246],[127.307036,35.30452],[127.323467,35.307409],[127.354256,35.322355],[127.375516,35.312198],[127.380086,35.303679],[127.384567,35.302458],[127.392699,35.307346],[127.423236,35.351338],[127.436279,35.36195],[127.47173,35.364739],[127.500033,35.359256],[127.577481,35.308901],[127.577368,35.295157],[127.595697,35.268133],[127.609284,35.262219],[127.611246,35.257387],[127.619184,35.235446],[127.620728,35.212657],[127.616884,35.206907],[127.625256,35.182453],[127.648372,35.160392],[127.659546,35.158572],[127.688684,35.135171],[127.694629,35.124998],[127.697263,35.101778],[127.757153,35.055018],[127.785208,35.020424],[127.786768,35.010926],[127.780342,34.989731],[127.759392,34.966776],[127.767727,34.953825],[127.76854,34.933794],[127.751713,34.933512]],[[126.809487,35.052288],[126.862366,35.076752],[126.926093,35.082392],[126.937181,35.074247],[126.951882,35.073157],[126.978916,35.091774],[127.007869,35.123987],[127.021416,35.173038],[126.999969,35.188816],[126.971851,35.180529],[126.948793,35.229159],[126.929372,35.252415],[126.914608,35.25821],[126.904801,35.258087],[126.878664,35.248889],[126.815659,35.224702],[126.805319,35.21835],[126.76031,35.233973],[126.758999,35.245371],[126.763384,35.256519],[126.757904,35.258367],[126.737096,35.251874],[126.71988,35.226766],[126.65667,35.193777],[126.650552,35.147958],[126.651659,35.120412],[126.655198,35.114856],[126.669421,35.104602],[126.708623,35.109533],[126.735287,35.1093],[126.809487,35.052288]],[[126.391452,34.732582],[126.388281,34.725778],[126.462859,34.709453],[126.469992,34.717311],[126.428483,34.72414],[126.404618,34.734688],[126.391452,34.732582]]]]}}, {"type" : "Feature", "properties" : {"adm_cd" : "39", "name" : "제주특별자치도"}, "geometry" : {"type":"MultiPolygon","coordinates":[[[[126.269982,33.112454],[126.264717,33.114814],[126.268253,33.124454],[126.270556,33.121182],[126.269982,33.112454]]],[[[126.224216,33.419893],[126.224488,33.417874],[126.226546,33.419276],[126.22394,33.414521],[126.224216,33.419893]]],[[[126.827335,33.547975],[126.865267,33.528868],[126.881465,33.529703],[126.892809,33.526888],[126.904258,33.519545],[126.913397,33.503233],[126.904879,33.488601],[126.923259,33.455539],[126.922311,33.439595],[126.894024,33.388009],[126.881862,33.381874],[126.849608,33.336726],[126.846441,33.320027],[126.830064,33.306582],[126.806951,33.301978],[126.789349,33.303859],[126.735484,33.281226],[126.70543,33.273599],[126.658764,33.272823],[126.628477,33.25346],[126.619775,33.24412],[126.591409,33.238366],[126.568834,33.243015],[126.539154,33.241542],[126.520258,33.238563],[126.508625,33.229733],[126.476428,33.226252],[126.412652,33.244607],[126.363375,33.231702],[126.327734,33.240794],[126.318291,33.237591],[126.298079,33.222815],[126.290637,33.203699],[126.256029,33.210462],[126.214057,33.242562],[126.20252,33.24553],[126.182261,33.259749],[126.162281,33.286602],[126.161518,33.334109],[126.169767,33.344029],[126.179762,33.346294],[126.182915,33.358504],[126.224646,33.389681],[126.250134,33.401004],[126.262285,33.41636],[126.264215,33.423779],[126.284644,33.444814],[126.324967,33.473411],[126.452097,33.49753],[126.531661,33.521288],[126.555343,33.521168],[126.601837,33.536177],[126.634505,33.536042],[126.762484,33.565611],[126.824936,33.558744],[126.827335,33.547975]]]]}}]}
